Society_latitude,Society_longitude,Area_latitude,Area_longitude,Region,Division,Subregion,Area,society,alternative_names,People,People2,People3,Arensberglomax_clusters,Focal_years,cantometrics_samplesize,minutage_samplesize,parlametrics_samplesize,phonotactics_samplesize,Koppen_climate_terrain,Koppen_code,Arensberglomax_taxon,Taxon_id,Language,Language_nearsubfamily,Language_largersubfamily,Language_family,Language_familytree,ISO6393,Glottocode,Country,Country_id,society_id,C_cid,M_cid,P_cid,Ph_cid,Ch_cid,dplace_id,EA_cu_name,EA_cu# UPDATE,Murdock_cu#,EA_Prov_name,EA_Prov_#,EA_#,Culture_Wiki,Society_summary,Notes_1,Notes_2,Culture Sources
3.01,30.92,1.83,29.5,Africa,Central Africa,Equatorial Central Africa,"Ituri Prov, N E DR Congo ",Mbuti,Bambuti,Efe,African Hunter-Gatherers,West & Central African Peoples,African Gatherers,1958; 1950s; 1952-53; 1952-57; 1954-58,13,4,1,,"Monsoon, Tropical Savannah","Am, Aw",C-Africa,scfal6,Asoa,Mangbetuic,Mangbetu-Asua,Central Sudanic,"Central Sudanic, Mangbetu-Asua, Mangbetuic",ISO 639-3: asv,asoa1238,Democratic Republic of the Congo,,21132,21132,21132,21132,,21132,,MBUTI,Aa5,21132,Pygmies,15,35922,wiki,"The Mbuti are one of several native forest-dwelling hunter-gatherer (""pygmy"") groups in Africa's Congo region. The Mbuti people inhabit in the Ituri Forest, a tropical rainforest. They are mainly hunter-gatherers.",,,@Murdock1967EA @Murdock1968WorldSamplingProvinces @Lomax1989Cantometrics @ArensbergLomax1977Subsistence @Koppen2006UpdatedWorldMap @Glottoasoa1238 @Ethnoasv @WikiMbuti  
8.57,16.08,8.22,24.63,Africa,Central Africa,N Central Africa,N W Central African Rep/ S Chad/ S W Sudan,Sara Ngambay,Sara Peoples/ Chaddic Nilotes,Sara Nilotes,,West & Central African Peoples,Tropical Gardeners,1966,,,1,,Tropical Savannah,Aw,AH-Savannah,scfal921,Ngambay,Saraic,Sara-Bongo-Bagirmi,Central Sudanic,"Central Sudanic, Sara-Bongo-Bagirmi, SBB Occidental, Saraic, Sara Central, Sara Central Logone",ISO 639-3: sba,ngam1268,Central African Republic; Chad; Sudan,,62543,,,62543,,,,,Ai22,,,,,wiki,,,,@Murdock1967EA @Murdock1968WorldSamplingProvinces @Lomax1989Cantometrics @ArensbergLomax1977Subsistence @Koppen2006UpdatedWorldMap @WikiSara @EWCSara @Glottongam1268 @Ethnosba @KeeganNDSaraBagirmiLanguages
-8.98,28.8,-11.72,25.64,Africa,Central Africa,S Central Africa,S DR Congo/ N Zambia,Shila,,S C Bantu,,West & Central African Peoples,Tropical Gardeners,,,,1,,Tropical Savannah,Aw,,,Shila,Sabi,Narrow Bantu,Atlantic-Congo,"Atlantic-Congo, Volta-Congo, Benue-Congo, Bantoid, Southern Bantoid, Narrow Bantu, East Bantu, Sabi, Malungu-Central Sabi, Taabwa",,shil1264,Democratic Republic of the Congo; Zambia,,25400,,,25400,,,,SHILA,Ac35,,Eastern Central Bantu,7,14435,,,,,@Murdock1967EA @Murdock1968WorldSamplingProvinces @Lomax1989Cantometrics @Koppen2006UpdatedWorldMap @Glottoshil1264    
3.06,32.54,3.4,32.69,Africa,East Africa,Great Lakes Africa,"Acoli-land, N Uganda",Acoli,Luo; Acholi; Ugang; Shuli; Gang,C Luo Nilotes,,East African Peoples,African Pastoralists,1954,7,,1,,Tropical Savannah,Aw,AH-Savannah,scfal788,Acoli,Luo-Burun,Western Nilotic,Nilotic,"Nilotic, Luo-Burun, Southern Lwoo",ISO 639-3: ach,acol1236,Uganda,,10099,10099,,10099,,,,ACHOLI,Aj10,10099,Northern Nilotes,37,29479,wiki,"Acholi people live in Acholi District of northern Uganda and the bordering area of the southern South Sudan. Drumming, singing, and dancing are traditionly remaining the major art forms of the Acholi.",,,@Murdock1967EA @Murdock1968WorldSamplingProvinces @Lomax1989Cantometrics @ArensbergLomax1977Subsistence @Koppen2006UpdatedWorldMap @Glottoacol1236 @Ethnoach @WikiAcoli  
-3.43,29.9,-3.43,29.9,Africa,East Africa,Great Lakes Africa,Burundi,Rundi Unspecified,Burundians,Barundi E Bantu,,East African Peoples,Tropical Gardeners,,,,1,,Tropical Savannah,Aw,,,Rundi,Great Lakes Bantu,Narrow Bantu,Atlantic-Congo,"Atlantic-Congo, Volta-Congo, Benue-Congo, Bantoid, Narrow Bantu, Kivu",ISO 639-3: run,rund1242,Burundi,,62544,,,62544,,,,Rundi,Ae8,,Lacustrine Bantu,13,,wiki,,,,@Murdock1967EA @Murdock1968WorldSamplingProvinces @Lomax1989Cantometrics @Koppen2006UpdatedWorldMap @Glottorund1242 @WikiKirundi @Ethnorun
-11.38,33.91,-11.13,33.75,Africa,East Africa,Great Lakes Africa,N Malawi,Tonga (Malawi),Batonga; Nyasa Tonga,Nyasa S E Bantu,,East African Peoples,Tropical Gardeners,1950; 1955; 1956; 1957,7,,1,,Humid Subtropical,Cwa,AH-Savannah,scfal910,Tonga,Shona,Narrow Bantu,Atlantic-Congo,"Atlantic-Congo, Volta-Congo, Southern Bantoid, Narrow Bantu, Shona, Ndau",,tong1316,Malawi,,27017,27017,,27017,,,,LAKE TONGA,Ac13,27017,Eastern Central Bantu,7,35177,wiki,,,,@Murdock1967EA @Murdock1968WorldSamplingProvinces @Lomax1989Cantometrics @ArensbergLomax1977Subsistence @Koppen2006UpdatedWorldMap @Glottotong1316  @WikiTonga  
0.79,35.41,0.24,35.1,Africa,East Africa,Great Lakes Africa,"Nandi Cty, W Kenya",Nandi,,Kalenjin Nilotes,,East African Peoples,African Pastoralists,1950,8,,1,,"Tropical Rainforest, Monsoon, Tropical Savanna","Af, Am, Aw",AH-Savannah,scfal893,Nandi,Kalenjin,Southern Nilotic,Nilotic,"Nilotic, Kalenjin, Plateau Central Kalenjin",ISO 639-3: niq,nand1266,Kenya,,22166,22166,,22166,,,,NANDI,Aj7,22166,Southern Nilotes,38,38486,wiki,"The Kalenjin-speaking Nandi are part of the Kalenjin ethnic group living in the highland areas of the Rift Valley Province of Kenya. They have a reputation as fearsome warriors. Their livelihood relies primarily on farming subsistence crops including beans, pumpkins, cabbage, and other vegetables, but they have a cultural and emotional attachment to cattle herding, which represents prestige and wealth. Traditionally they worshipped a supreme being as well as venerating their ancestors.",,,@Murdock1967EA @Murdock1968WorldSamplingProvinces @Lomax1989Cantometrics @ArensbergLomax1977Subsistence @Koppen2006UpdatedWorldMap @Glottonand1266 @Ethnoniq @WikiNandi  
-8,34,-8.67,33.98,Africa,East Africa,Great Lakes Africa,"Usangu Plain, S C Tanzania",Sangu,Rori,Interior Tanzania Bantu,,East African Peoples,Tropical Gardeners,,,,1,,Humid Subtropical Oceanic Highland,Cwb,AH-Savannah,scfal919,Sangu (Tanzania),Southern Tanzania Highlands Bantu,Narrow Bantu,Atlantic-Congo,"Atlantic-Congo, Volta-Congo, Benue-Congo, Bantoid, Narrow Bantu, East Bantu, Northeast Savannah Bantu, Southern Tanzania Highlands Bantu, Wanji-Sangu",ISO 639-3: sbp,sang1330,Tanzania,,24861,,,24861,,,,SANGU,Ad23,,Interior Tanzania,9,7521,wiki,,,,@Murdock1967EA @Murdock1968WorldSamplingProvinces @Lomax1989Cantometrics @ArensbergLomax1977Subsistence @Koppen2006UpdatedWorldMap @Glottosang1330 @Ethnosbp @WikiSangu  
2,34,1.36,34.77,Africa,East Africa,Great Lakes Africa,W Kenya/ E Uganda,Teso,Iteso,Plains Nilotes,,East African Peoples,African Pastoralists,,,,1,,Monsoon,Am,AH-Savannah,scfal942,Teso,Teso-Turkana,Eastern Nilotic,Nilotic,"Nilotic, Teso-Lotuxo-Maa, Teso-Turkana",ISO 639-3: teo,teso1249,Kenya; Uganda,,26907,,,26907,,,,TESO,Aj1,,Southern Nilotes,38,7017,wiki,,,,@Murdock1967EA @Murdock1968WorldSamplingProvinces @Lomax1989Cantometrics @ArensbergLomax1977Subsistence @Koppen2006UpdatedWorldMap @Glottoteso1249 @Ethnoteo @WikiTeso  
4.78,45.15,4.81,42.83,Africa,East Africa,Horn of Africa,Djibouti/ S E Ethiopia/ Kenya/ Somalia ,Somalis,Soomaali,Lowland E Cushites,,East African Peoples,African Pastoralists,1972,2,,1,,"Warm Desert, Semi Arid Steppe Hot","BWh, BSh",P-Camel Nomads,scfal1048,Somali,Lowland East Cushitic,Cushitic,Afro-Asiatic,"Afro-Asiatic, Cushitic, East Cushitic, Mainstream Lowland East Cushitic, Omo-Tana, Eastern Omo-Tana",ISO 639-3: som,soma1255,Ethiopia,,25818,25818,,25818,,,,SOMALI,Ca2,25818,Horn,41,55908,wiki,,,,@Murdock1967EA @Murdock1968WorldSamplingProvinces @Lomax1989Cantometrics @ArensbergLomax1977Subsistence @Koppen2006UpdatedWorldMap @Glottosoma1255 @Ethnosom @WikiSomalis  
5.07,36.52,6.67,36.31,Africa,East Africa,Horn of Africa,"Southern Nations, Nationalities & People Region, S W Ethiopia",Hamar,Hamer; Hammar,S Omotic Peoples,,East African Peoples,African Pastoralists,1967,9,,3,,Tropical Savannah,Aw,AH-Savannah,scfal838,Hamer-Banna,Hamer-Karo,AHK,South Omotic,"Afro-Asiatic, Omotic, South Omotic, AHK, Hamer-Karo",ISO 639-3: amf,hame1242,Ethiopia,,16479,16479,,16479,,16479,,HAMMAR,Ca21,16479; 16512,Western Cushites,39,32832,wiki,,,,@Murdock1967EA @Murdock1968WorldSamplingProvinces @Lomax1989Cantometrics @ArensbergLomax1977Subsistence @Koppen2006UpdatedWorldMap @Glottohame1242 @Ethnoamf @WikiHamar  
-18.02,46.91,-19.96,46.41,Africa,East Africa,Indian Ocean Islands,Madagascar C Highlands,Merina,Highland Malagasy,Highland Malagasy Peoples,,East African Peoples,Tropical Gardeners,1962,10,1,1,,Humid Subtropical Oceanic Highland,Cwb,AH-Sudan,scfal671,Merina,Malagasic,Malayo-Polynesian,Austronesian,"Austronesian, Malayo-Polynesian, Greater Barito, Southeast Barito, Malagasic, Central Malagasic, Northeast Central Malagasic, Bara-Merina, Plateau Malagasy",,meri1243,Madagascar,,21242,21242,21242,21242,,21242,,MERINA,Eh2,21242,Malagasy,8,64082,wiki,,,,@Murdock1967EA @Murdock1968WorldSamplingProvinces @Lomax1989Cantometrics @ArensbergLomax1977Subsistence @Koppen2006UpdatedWorldMap @Glottomeri1243  @WikiMerina  
8.14,32.38,6.62,34.78,Africa,East Africa,Nile Valley,S W Ethiopia/ South Sudan,Nuer,Nuäär; Nuaar,Dinka-Nuer Nilotes,,East African Peoples,African Pastoralists,1963,11,10,1,,Tropical Savannah,Aw,AH-Savannah,scfal899,Nuer,Dinka-Nuer,Western Nilotic,Nilotic,"Nilotic, Western Nilotic, Dinka-Nuer, Nuer-Reel",ISO 639-3: nus,nuer1246,Ethiopia; South Sudan,,22870,22870,22870,22870,,22870,,NUER,Aj3,22871,Northern Nilotes,37,22361,wiki,,,,@Murdock1967EA @Murdock1968WorldSamplingProvinces @Lomax1989Cantometrics @ArensbergLomax1977Subsistence @Koppen2006UpdatedWorldMap @Glottonuer1246 @Ethnonus @WikiNuer  
7.02,31.29,6.61,30.38,Africa,East Africa,Nile Valley,South Sudan,Dinka,Jieng,Dinka-Nuer Nilotes,,East African Peoples,African Pastoralists,1963,9,,1,,Tropical Savannah,Aw,AH-Savannah,scfal820,Dinka,Dinka-Nuer,Western Nilotic,Nilotic,"Nilotic, Western Nilotic, Dinka-Nuer",ISO 639-3: din,dink1262,South Sudan,,14576,14576,,14576,,,,DINKA,Aj11,14576,Northern Nilotes,37,61496,wiki,,,,@Murdock1967EA @Murdock1968WorldSamplingProvinces @Lomax1989Cantometrics @ArensbergLomax1977Subsistence @Koppen2006UpdatedWorldMap @Glottodink1262 @Ethnodin @WikiDinka  
4,33,6.61,30.38,Africa,East Africa,Nile Valley,South Sudan,Lotuko,Otuho; Latuka; Lotuxo; Lotuho ,Lotuko-Maa Nilotes,,East African Peoples,African Pastoralists,,,,1,,Tropical Savannah,Aw,AH-Savannah,scfal872,Lotuxo,Teso-Lotuxo-Maa,Eastern Nilotic,Nilotic,"Nilotic, Teso-Lotuxo-Maa, Lotuxo-Maa",,lotu1249,South Sudan,,20054,,,20054,,,,LOTUKO,Aj12,,Northern Nilotes,37,22094,wiki,,,,@Murdock1967EA @Murdock1968WorldSamplingProvinces @Lomax1989Cantometrics @ArensbergLomax1977Subsistence @Koppen2006UpdatedWorldMap @Glottolotu1249  @WikiOtuho  
4,32,6.61,30.38,Africa,East Africa,Nile Valley,South Sudan,Madi,Mà'dí; Ma’di,Central Sudanic Peoples,,East African Peoples,Tropical Gardeners,,,,1,,Tropical Savannah,Aw,AH-Savannah,scfal877,Ma'di,Southern Moru-Madi,Moru-Madi,Central Sudanic,"Central Sudanic, Moru-Madi, Southern Moru-Madi",ISO 639-3: mhi,madi1260,South Sudan; Uganda,,20373,,,20373,,,,MADI,Ai33,,Azande-Mangbetu,34,38223,wiki,,,,@Murdock1967EA @Murdock1968WorldSamplingProvinces @Lomax1989Cantometrics @ArensbergLomax1977Subsistence @Koppen2006UpdatedWorldMap @Glottomadi1260 @Ethnomhi @WikiMadi  
35,-4,31.52,-6.85,Africa,Northern Africa,Maghreb,"Atlas Mountains, Morocco",Riffians,Irifiyen; Riyafa; Rwafa,Atlas Berbers,Berbers,North African Peoples,Old Eurasia,,,,1,,Warm Mediterranean,Csa,PA-Middle East,scfal1183,Riffian,Greater Zenatic,Berber,Afro-Asiatic,"Afro-Asiatic, Berber, Zenatic, Tarifiyt-Beni-Iznasen-Eastern Middle Atlas Berber",,riff1234,Morocco,,30150,,,30150,,,,RIFFIANS,Cd3,,Mountain and Coastal Berbers,48,57694,wiki,,,,@Murdock1967EA @Murdock1968WorldSamplingProvinces @Lomax1989Cantometrics @ArensbergLomax1977Subsistence @Koppen2006UpdatedWorldMap @Glottoriff1234  @WikiRiffians  
-27,32,-26.66,31.5,Africa,Southern Africa,E Southern Africa,Eswatini,Swazi,,Nguni S Bantu,,Southern African Peoples,Tropical Gardeners,,,,1,,Humid Subtropical,Cwa,AH-Savannah,scfal935,Swati,Southern Bantu-Makua,Narrow Bantu,Atlantic-Congo,"Atlantic-Congo, Volta-Congo, Benue-Congo, East Bantu, Southern Bantu-Makua",ISO 639-3: ssw,swat1243,Eswatini,,19023,,,19023,,,,SWAZI,Ab2,,Southeastern Bantu,3,57190,wiki,,,,@Murdock1967EA @Murdock1968WorldSamplingProvinces @Lomax1989Cantometrics @ArensbergLomax1977Subsistence @Koppen2006UpdatedWorldMap @Glottoswat1243 @Ethnossw @WikiSwazi  
-30.44,27.91,-29.85,28.23,Africa,Southern Africa,E Southern Africa,South Africa/ Lesotho,Sotho,Basotho; Basuto,S E Bantu,,Southern African Peoples,Tropical Gardeners,1957,10,10,1,,Humid Subtropical Oceanic Highland,Cwb,AH-Savannah,scfal931,Sotho,Southern Bantu-Makua,Narrow Bantu,Atlantic-Congo,"Atlantic-Congo, Volta-Congo, Benue-Congo, Bantoid, East Bantu, Southern Bantu-Makua, Sotho-Tswana",,soth1252,Lesotho,,25917,25917,25917,25917,,25917,,SOTHO,Ab8,25917,Sotho,4,15717,wiki,,,,@Murdock1967EA @Murdock1968WorldSamplingProvinces @Lomax1989Cantometrics @ArensbergLomax1977Subsistence @Koppen2006UpdatedWorldMap @Glottosoth1252  @WikiSotho  
-21.92,18.01,-20.54,20.57,Africa,Southern Africa,W & C Southern Africa,Angola/ Botswana/ Namibia/ South Africa/ Zambia,Juǀʼhoansi,Juǀʼhoan; Dzuǀʼoasi; Zû-ǀhoa; Southeastern ǃXuun; Zhul'hoasi; Zhulhoasiǃ; Xun; Kung; iKung; Bushmen,S Savannah Hunter Gatherers/ San Khoisan,African Hunter-Gatherers,Southern African Peoples,African Gatherers,1953; 1961; 1982; 1995; 1950s,20,7,1,12,Semi Arid Steppe Hot,BSh,C-Africa,scfal1,South-Eastern Ju (also known as Juǀʼhoan),South-Eastern Ju,Ju-Kung,Kx'a,"Kx'a, Ju-Kung",ISO 639-3: ktz,juho1239,Namibia,,19262,19262,19262,19262,19262,19262,,KUNG; JU'HOANSI,Aa1,19262,Bushmen,2,15947,wiki,,,,@Murdock1967EA @Murdock1968WorldSamplingProvinces @Lomax1989Cantometrics @ArensbergLomax1977Subsistence @Koppen2006UpdatedWorldMap @Glottojuho1239 @Ethnoktz @Wiki!Kung  
6.46,0.81,6.97,1.14,Africa,West Africa,Benin/ Ghana/ Togo,S W Benin/ S E Ghana/ S Togo,Ewe,Eʋe; Eʋeawó,Gbe Peoples,,West & Central African Peoples,Tropical Gardeners,,1,,1,,Tropical Savannah,Aw,AH-Tropical Forest,scfal739,Ewe,Gbe,Kwa Volta-Congo,Atlantic-Congo,"Atlantic-Congo, Volta-Congo, Kwa Volta-Congo, Gbe, Eweic",ISO 639-3: ewe,ewee1241,Ghana,,30163,30163,,30163,,,,EWE,Af36,15203,Slave Coast,19,25403,wiki,,,,@Murdock1967EA @Murdock1968WorldSamplingProvinces @Lomax1989Cantometrics @ArensbergLomax1977Subsistence @Koppen2006UpdatedWorldMap @Glottoewee1241 @Ethnoewe @WikiEwe  
6,0,5.55,-0.26,Africa,West Africa,Ghana,Ghana Coast,Ga,Gã-Daŋbɛ; Ga-Dangme; GaDangme; Ga-Adangbe,Ga-Dangme Peoples,,West & Central African Peoples,Tropical Gardeners,,,,1,,Tropical Savannah,Aw,AH-Waterside,scfal570,Ga,Ga-Dangme,Kwa Volta-Congo,Atlantic-Congo,"Atlantic-Congo, Volta-Congo, Kwa Volta-Congo, Ga-Dangme",ISO 639-3: gaa,gaaa1244,Ghana,,15621,,,15621,,,,GA,Af43,,Akan,20,1341,wiki,,,,@Murdock1967EA @Murdock1968WorldSamplingProvinces @Lomax1989Cantometrics @ArensbergLomax1977Subsistence @Koppen2006UpdatedWorldMap @Glottogaaa1244 @Ethnogaa @WikiGa-Adangbe  
5.13,-1.27,5.13,-1.41,Africa,West Africa,Ghana/ Ivory Coast,C Ghana Coast/ Ivory Coast,Fante,Fanti; Mfantsefo,Akan Peoples,Tano Peoples,West & Central African Peoples,Tropical Gardeners,1993; 2000,3,,1,,Tropical Savannah,Aw,AH-Tropical Forest,scfal740,Fante,Nyo,Kwa Volta-Congo,Atlantic-Congo,"Atlantic-Congo, Volta-Congo, Kwa Volta-Congo, Nyo, Tano, Akanic, Akan ",ISO 639-3: fat,fant1241,Ghana,,15280,15280,,15280,,15280,,FANTI,Af42,15280,Akan,20,45115,wiki,,,,@Murdock1967EA @Murdock1968WorldSamplingProvinces @Lomax1989Cantometrics @ArensbergLomax1977Subsistence @Koppen2006UpdatedWorldMap @Glottofant1241 @Ethnofat @WikiFante  
12,-2,12.23,-1.22,Africa,West Africa,Interior West Africa,Burkina Faso,Mossi,Mole; Mosse; Mosi; Moore,Gur Peoples,,West & Central African Peoples,Tropical Gardeners,,,,1,,Semi Arid Steppe Hot,BSh,AH-Sudan; AH-Savannah,scfal673; scfal889,Mossi,Oti-Volta,Gur,Atlantic-Congo,"Atlantic-Congo, Volta-Congo, Gur, Bwamu-Oti-Volta, Nuclear Oti-Volta Occidental, Mossi-Farefare, Mossic",ISO 639-3: mos,moss1236,Burkina Faso,,21792,,,21792,,,,MOSSI,Ag47,,Upper Volta,27,8277,wiki,,,,@Murdock1967EA @Murdock1968WorldSamplingProvinces @Lomax1989Cantometrics @ArensbergLomax1977Subsistence @Koppen2006UpdatedWorldMap @Glottomoss1236 @Ethnomos @WikiMossi  
12.04,-9.99,12.36,-9.04,Africa,West Africa,Interior West Africa,S Mali/ Burkina Faso/ Guinea/ Senegal ,Bambara,Bamana; Banmana,Mandé Peoples,,West & Central African Peoples,Tropical Gardeners,1934; 1960's; 1991-92,17,,1,,Tropical Savannah,Aw,AH-Savannah,scfal800,Bambara,Central Mande,Western Mande,Mande,"Mande, Western Mande, Central Mande, Manding, East Manding",ISO 639-3: bam,bamb1269,Burkina Faso; Guinea; Mali; Senegal,,11529,11529,,11529,,11529,,BAMBARA,Ag1,11529,Mande,24,2349,wiki,,,,@Murdock1967EA @Murdock1968WorldSamplingProvinces @Lomax1989Cantometrics @ArensbergLomax1977Subsistence @Koppen2006UpdatedWorldMap @Glottobamb1269 @Ethnobam @WikiBambara  
11.15,8.78,13.13,7.19,Africa,West Africa,Interior West Africa,S Niger/ N Nigeria,Hausa Unspecified,Hausawa; Haoussa; Mgbakpa; Kado; Al-Takari; Abakwariga,Hausa,Chadic Peoples,West & Central African Peoples,Tropical Gardeners,1958-59,2,,1,,Semi Arid Steppe Hot,BSh,AH-Sudan,scfal631,Hausa,West Chadic,Chadic,Afro-Asiatic,"Afro-Asiatic, Chadic, West Chadic, Hausa",ISO 639-3: hau,haus1257,Niger; Nigeria,,62528,62528,,62528,,62528,,HAUSA,,,,,,wiki,"The largest ethnic group in West Africa and one of the largest in Africa, the Hausa are racially diverse but culturally related and are based in the Sahelian and Sudanian areas of northern Nigeria and southeastern Niger. Most live in small villages or towns where they grow crops, raise livestock and engage in trade. Islam is the principal religion, although some still practice Maguzawa, African Traditional Religion",,,@Murdock1967EA @Murdock1968WorldSamplingProvinces @Lomax1989Cantometrics @ArensbergLomax1977Subsistence @Koppen2006UpdatedWorldMap @Glottohaus1257 @Ethnohau @WikiHausa  
13.5,2.5,16.03,4.96,Africa,West Africa,Interior West Africa,W Niger,Zarma,Zerma; Djerma; Dyerma; Zaberma; Zabarma; Zabermawa,Songhay Peoples,Songhay Peoples,West & Central African Peoples,Tropical Gardeners,,,,1,,Semi Arid Steppe Hot/ Warm Desert,BSh/ BWh,,,Zarma,Zarma-Kaado-Dendi,Eastern Songhay,Songhay,"Songhay, Eastern Songhay, Zarma-Kaado",,zarm1241,Niger,,14620,,,14620,,,,ZERMA,Cb20,,Songhai,25,,wiki,,,,@Murdock1967EA @Murdock1968WorldSamplingProvinces @Lomax1989Cantometrics @Koppen2006UpdatedWorldMap @Glottozarm1241  @WikiZarma  
17,-14,14.76,-12.22,Africa,West Africa,N West Africa,"Mali/ Mauritania/ Futa Toro Reg, N Senegal",Tukulor,Haalpulaar; Toucouleur,Tukulor,Fula Peoples,West & Central African Peoples,Old Eurasia,,,,1,,Warm Desert,BWh,AH-Savannah,scfal951," Pulaar (Fula, Fulani)",Fula-Sereer,North-Central Atlantic,Atlantic-Congo,"Atlantic-Congo, North-Central Atlantic, Fula-Sereer, Fula",ISO 639-3: fuc,pula1263,Mali; Mauritania; Senegal,,27622,,,27622,,27622,,TUKULOR,Cb23,,Fulani,23,58987,wiki,,,,@Murdock1967EA @Murdock1968WorldSamplingProvinces @Lomax1989Cantometrics @ArensbergLomax1977Subsistence @Koppen2006UpdatedWorldMap @Glottopula1263 @Ethnofuc @WikiToucouleur  
6.88,9.26,8.75,9.58,Africa,West Africa,Nigeria,E C Nigeria,Tiv,Tivi,Tiv,,West & Central African Peoples,Tropical Gardeners,1958-59,4,,1,,Tropical Savannah,Aw,AH-Tropical Forest,scfal782,Tiv,Central Tivoid,Tivoid,Atlantic-Congo,"Atlantic-Congo, Volta-Congo, Benue-Congo, Bantoid, Tivoid, Tiv-Evand, Tiv-Iyive-Otanga",ISO 639-3: tiv,tivv1240,Nigeria; Cameroon,,27160,27160,,27160,,,,TIV,Ah3,27160,Tiv-Adamawa,30,6250,wiki,,,,@Murdock1967EA @Murdock1968WorldSamplingProvinces @Lomax1989Cantometrics @ArensbergLomax1977Subsistence @Koppen2006UpdatedWorldMap @Glottotivv1240 @Ethnotiv @WikiTiv  
4.63,7.23,6.33,7.33,Africa,West Africa,Nigeria,"Igboland, S E Nigeria",Igbo,Ibo; Ebo; Iboe; Eboans; Heebo,Igbo Peoples,,West & Central African Peoples,Tropical Gardeners,1954; 1937-40,4,,1,,Tropical Savannah,Aw,AH-Tropical Forest,scfal743,Igbo,Nuclear Igboid,Igboid,Atlantic-Congo,"Atlantic-Congo, Volta-Congo, Benue-Congo, Igboid, Nuclear Igboid",ISO 639-3: ibo,nucl1417,Nigeria,,16996,16996,,16996,,,,IBO,Af10,16996,Southeastern Nigeria,18,25666,wiki,,,,@Murdock1967EA @Murdock1968WorldSamplingProvinces @Lomax1989Cantometrics @ArensbergLomax1977Subsistence @Koppen2006UpdatedWorldMap @Glottonucl1417 @Ethnoibo @WikiIgbo  
10,12,11.2,12.36,Africa,West Africa,Nigeria,N E Nigeria,Bura,Burra; Bourrah; Pabir; Babir; Babur; Barburr; Mya Bura; Kwojeffa; Huve; Huviya,Biu-Mandara Chadic Peoples,Chadic Peoples,West & Central African Peoples,Tropical Gardeners,,,,1,,Semi Arid Steppe Hot,BSh,AH-Savannah,scfal810,Bura-Pabir,Biu-Mandara,Chadic,Afro-Asiatic,"Afro-Asiatic, Chadic, Biu-Mandara, Bura-Marghi, Buraic",ISO 639-3: bwr,bura1292,Nigeria,,12827,,,12827,,,,BURA,Ah35,,Lake Chad,31,6962,wiki,,,,@Murdock1967EA @Murdock1968WorldSamplingProvinces @Lomax1989Cantometrics @ArensbergLomax1977Subsistence @Koppen2006UpdatedWorldMap @Glottobura1292 @Ethnobwr @WikiBura  
4.73,6.36,5.28,6.41,Africa,West Africa,Nigeria,Niger Delta,Ijaw,Ijo; Izon; Kalabari,Ijaw Peoples,,West & Central African Peoples,Tropical Gardeners,,,,1,,Monsoon,Am,AH-Waterside,scfal571,Ijo,Ijo,Ijo,Ijoid,Ijoid,,ijoo1239,Nigeria,,17117,,,17117,,,,IJAW,Af21,,Southeastern Nigeria,18,56642,wiki,,,,@Murdock1967EA @Murdock1968WorldSamplingProvinces @Lomax1989Cantometrics @ArensbergLomax1977Subsistence @Koppen2006UpdatedWorldMap @Glottoijoo1239  @WikiIjaw  
15.25,-15.38,13.59,-13.91,Africa,West Africa,Senegambia,Gambia/ S W Mauritania/ Senegal,Wolof,Wollof; Woloff; Joloff,Wolof,N C Atlantic African Peoples,West & Central African Peoples,African Pastoralists,1951; 1955-65,10,6,1,,Warm Desert,BWh,AH-Savannah,scfal958,Wolof,Wolof-BKK,North-Central Atlantic,Atlantic-Congo,"Atlantic-Congo, North-Central Atlantic, Wolof-BKK, Wolofic",ISO 639-3: wol,nucl1347,The Gambia; Mauritania; Senegal,,28744,28744,28744,28744,,,,WOLOF,Cb2,28744,Senegambians,22,18544,wiki,"The Wolof are largely Muslim horticulturalists living in tropical grassland between the Gambia and Senegal rivers. Caste-like classes include praisers, minstrels, musicians and entertainers, géwél (griots). Wolof music was influenced by W. Africa and Muslim N. Africa. The sabar drum ensemble of tama (hourglass talking drum) and xalam, a five-stringed lute ancestral to the banjo was traditional.",,,@Murdock1967EA @Murdock1968WorldSamplingProvinces @Lomax1989Cantometrics @ArensbergLomax1977Subsistence @Koppen2006UpdatedWorldMap @Glottonucl1347 @Ethnowol @WikiWolof  
12.76,-15.74,12.95,-16.2,Africa,West Africa,Senegambia,S W Senegal,Jola-Fonyi,Diola Fogny,Jola Peoples,N C Atlantic African Peoples,West & Central African Peoples,Tropical Gardeners,1965,11,,1,,Tropical Savannah,Aw,Uah (Unclassified Animal Husbanders),scfal990,Jola-Fonyi,Central Atlantic,North-Central Atlantic,Atlantic-Congo,"Atlantic-Congo, North-Central Atlantic, Central Atlantic, Bak, Joola-Manjaku, Jola",ISO 639-3: dyo,jola1263,Senegal,,14598,14598,,14598,,,,DIOLA FOGNY,Ag19,14598,Senegambians,22,1593,wiki,,,,@Murdock1967EA @Murdock1968WorldSamplingProvinces @Lomax1989Cantometrics @ArensbergLomax1977Subsistence @Koppen2006UpdatedWorldMap @Glottojola1263 @Ethnodyo @WikiJola  
-11.63,130.96,-11.59,133.58,Australia,Northern Territory,Coastal & Island West Arnhem,Arafura Sea,Tunuvivi,Tiwi; Wongak; Nimara,Tiwi Islanders,,Indigenous Australians,Circum-Pacific Hunter/ Foragers,1948,1,,1,,Tropical Savannah,Aw,C-Australia,scfal18,Tiwi (language isolate),Tiwi (language isolate),Tiwi (language isolate),Tiwi (language isolate),Isolated language,ISO 639-3: tiw,tiwi1244,Australia,,30077,30077,,30077,,,,TIWI,Id3,27171,Tropical Australia,108,9066,wiki,"For the Tiwi people, music has built and played an important part of their live features. They sing regarding many important aspects of their lives, as well as cooking, family, hunting, nature and the Australian outback. Their land has been passed down from generation to generation and plays crucial part of their lives; they sing songs about the land praising and expresing their appreciation and love towards it. The Tunuvivi people of the Tiwi Islands in the Arafura Sea live by hunting, fishing, agriculture, native arts, and tourism. Their creation stories place them living on the islands as far back as 7,000 years. Tiwi art includes woodcarvings of birds from Tiwi mythology. Each bird has different meanings: some predict monsoon rains, others warn of cyclones or death.",,,@Murdock1967EA @Murdock1968WorldSamplingProvinces @Lomax1989Cantometrics @ArensbergLomax1977Subsistence @Koppen2006UpdatedWorldMap @Glottotiwi1244 @Ethnotiw @WikiTiwi  
-12.05,134.23,-12.11,134.52,Australia,Northern Territory,Coastal & Island West Arnhem,Coastal C Arnhem Land,Burarra,Gidjingali; Ngapanga; Burera,Burarra Peoples,,Indigenous Australians,Circum-Pacific Hunter/ Foragers,,1,,1,,Tropical Savannah,Aw,C-Australia,scfal15,Burarra,Bureran,Burera-Nakara,Maningrida,"Maningrida, Burera-Nakara, Bureran",ISO 639-3: bvr,bura1267,Australia,,62533,62533,,62533,,,,Gidjingali,Id11,,Tropical Australia,108,,wiki,,,,@Murdock1967EA @Murdock1968WorldSamplingProvinces @Lomax1989Cantometrics @ArensbergLomax1977Subsistence @Koppen2006UpdatedWorldMap @WikiBurarraPeople @Glottobura1267 @Ethnobvr
-15.97,145.31,-16.68,145.45,Australia,Queensland,Far North Queensland,Coral Sea Coast,Kuku Yalanji,"Gugu-Yalanji, Kuku Yalandji, Kokojelandji, Guugu Yalandji",Kuku Yalanji Peoples,,Indigenous Australians,Circum-Pacific Hunter/ Foragers,,,,1,,Tropical Savannah,Aw,,,Kuku-Yalanji,Yalandyic,Yimidhirr-Yalanji-Yidinic,Pama-Nyungan,"Pama-Nyungan,  Yimidhirr-Yalanji-Yidinic, Yalandyic",ISO 639-3: gvn,kuku1273,Australia,,62534,,,62534,,,,,,,,,,wiki,,,,@Murdock1968WorldSamplingProvinces @Koppen2006UpdatedWorldMap  @WikiKukuYalanji @Glottokuku1273 @Ethnogvn
7.11,-76.86,9.58,-78.75,Central America,Central American Mainland,Colombia/ Panama,San Blas Islands,Guna,Cuna; Kuna; Dule; Tule,Kuna,Chibchan Peoples,C American Indigenous Peoples,Nuclear America,1954; 1960; 1960-61,9,8,1,,Monsoon,Am,I-Eastern,scfal352,Kuna,Eastern Isthmic Chibchan,Core Chibchan,Chibchan,"Chibchan, Core Chibchan, Isthmic Chibchan, Eastern Isthmic Chibchan",,kuna1280,Panama,,14235,14235,14235,14235,,14235,,CUNA,Sa1,14235,Panama,170,39735,wiki,,,,@Murdock1967EA @Murdock1968WorldSamplingProvinces @Lomax1989Cantometrics @ArensbergLomax1977Subsistence @Koppen2006UpdatedWorldMap @Glottokuna1280  @WikiKuna  
19.43,-99.13,19.66,-99,Central America,Mexico,C Mexico,Valley of Mexico,Mexico City,Ciudad de Mexico,Mexico City Mestizo,,Mexico Mestizos,Nuclear America,1947-1950; 1947-65,,,1,,Subtropical Highland,Cwb,,,Mexican Altiplano Spanish,Castilic,Latinic,Indo-European,"Indo-European, Italic, Latinic, Romance, West Ibero-Romance, Castilic, Spanish",,,Mexico,,62498,62498,,62498,,,,,,,,,,wiki,,,,@Murdock1967EA @Murdock1968WorldSamplingProvinces @Lomax1989Cantometrics @Koppen2006UpdatedWorldMap @Glottostan1288 @Ethnospa @WikiMexico  
17.09,-96.74,16.68,-96.46,Central America,Mexico,S W Mexico,Oaxaca,Zapotec,,Zapotecan Oto-Manguean Peoples,,Mexico Indigenous Peoples,Nuclear America,1947-65,,,1,,Humid Subtropical Oceanic Highland,Cwb,I-Middle America,scfal396,Zapotecan,Zapotecan,Eastern Otomanguean,Otomanguean,"Otomanguean, Popoloca-Zapotecan",,zapo1436,Mexico,,29239,29239,,29239,,29239,,ZAPOTEC,Nj10,,Tehuantepec,166,14194,wiki,,,,@Murdock1967EA @Murdock1968WorldSamplingProvinces @Lomax1989Cantometrics @ArensbergLomax1977Subsistence @Koppen2006UpdatedWorldMap @Glottozapo1436  @WikiZapotec  
21.52,-77.78,21.64,-78.25,Central America,N Caribbean,Greater Antilles,Cuba,Havana Folk,Cubano; Cuban Folk,Hispano Cubano,,Caribbean Mestizos,Western Europe,,2,,2,,Tropical Savannah,Aw,,,Cuban Spanish,Castilic,Latinic,Indo-European,"Indo-European, Italic, Latinic, Romance, Western Romance, West Ibero-Romance, Castilic, Spanish",,,Cuba,,14191,14191,,14191,,,,CUBA:SPANISH,,14191,,,,wiki,,,,@Murdock1967EA @Murdock1968WorldSamplingProvinces @Lomax1989Cantometrics @Koppen2006UpdatedWorldMap   @WikiCamaguey  
18.48,-69.93,18.87,-70.39,Central America,N Caribbean,Greater Antilles,Dominican Rep,Cibao,Cibaeños,Hispano Dominicano,,Caribbean Mestizos,Warm Latitude Gardeners,1970; 1995; 1998;,4,,2,,Tropical Savannah,Aw,,,Dominican Spanish,Castilic,Latinic,Indo-European,"Indo-European, Italic, Latinic, Romance, Western Romance, West Ibero-Romance, Castilic, Spanish",,,Dominican Republic,,62403,62403,,62403,,,,,,,,,,wiki,,,,@Murdock1967EA @Murdock1968WorldSamplingProvinces @Lomax1989Cantometrics @Koppen2006UpdatedWorldMap   @WikiCibao  
18.97,-72.28,19.09,-72.27,Central America,N Caribbean,Greater Antilles,Haiti,Haiti,Ayiti; Haitian,Haitians,Afro-Caribbean Peoples,Afro-Caribbean Peoples,Tropical Gardeners,1952,10,,2,,"Semi Arid Steppe Hot, Tropical Savannah","BSh, Aw",AH-Sudan,scfal630,Haitian Creole (Haitian),Oil,Latinic,Indo-European,"Indo-European, Italic, Latinic, Romance, Oil",ISO 639-3: hat,hait1244,Haiti,,16446,16446,,16446,,,,HAITI,Sb9,16446,Caribbean Negroes,174,15936,wiki,,,,@Murdock1967EA @Murdock1968WorldSamplingProvinces @Lomax1989Cantometrics @ArensbergLomax1977Subsistence @Koppen2006UpdatedWorldMap @Glottohait1244 @Ethnohat @WikiHaitians  
18.22,-66.59,18.27,-66.61,Central America,N Caribbean,Greater Antilles,Puerto Rico,Jibaro/ Boriqua,"Boriqua, Puerto Rico Folk",Jibaro,,Latinx,Western Europe,1950; 1956; 1967; 1971; 1975; 1950s;,13,,3,,Monsoon,Am,PA-Europe,scfal1120,Puerto Rican Spanish,Castilic,Latinic,Indo-European,"Indo-European, Italic, Latinic, Romance, Western Romance, West Ibero-Romance, Castilic, Spanish",,,Puerto Rico,,23970,23970,,23970,,,,PUERTO RICO,,23970,,,41565,wiki,,,,@Murdock1967EA @Murdock1968WorldSamplingProvinces @Lomax1989Cantometrics @ArensbergLomax1977Subsistence @Koppen2006UpdatedWorldMap   @WikiJibaro  
24.71,-78.05,24.37,-76.96,Central America,N Caribbean,Lucayan Archipelago,Bahamas,Andros,,Bahamian,Afro-Caribbean Peoples,Afro-Caribbean Peoples,Tropical Gardeners,1958,4,,1,,Tropical Rainforest,Af,,,Bahamas Creole English,Anglic,Germanic,Indo-European,"Indo-European, Germanic, Anglo-Frisian, Eastern Carribean Creole, Bahamian Gullah",ISO 639-3: bah,baha1260,Bahamas,,10605,10605,,10605,,,,ANDROS ISLAND,,10605,,,,wiki,"One of the world’s largest sponge beds lies at the edge of the Fresh Creek and similar Afro-Caribbean settlements on the west coast of Andros Island. Formerly, the sponge fisheries maintained an oppressive and exploitative sharecropping regime, which was both dangerous and physically injurious to the fishermen. These communities developed a rich corpus of shanties, anthems, ring game songs and plays, and old story songs. Basket making, woodcarving, and batik fabric crafting, and beginning in the late 20th century, tourism, have been important sources of income. Andros has been a melting pot of cultures, including West Africans, Seminole Indians, and Spanish and British settlers.",,,@Murdock1967EA @Murdock1968WorldSamplingProvinces @Lomax1989Cantometrics @Koppen2006UpdatedWorldMap   @WikiAndros  @Glottobaha1260
35.91,64.77,41.34,69.87,Central Asia,C Central Asia,Central Steppe,"Turkic Steppe, Transoxania",Uzbeks,Oʻzbek; Uzbek; Khorezm,Uzbek Turkic Peoples,Turkic C Asians,Central Asia Turkic Peoples,Central Asia,1956; 1959; 1940s;,8,,1,,Hot Summer Continental,Dsa,P-Central Asian,,Uzbek,Turkestan Turkic,Common Turkic,Turkic,"Turkic, Turkestan Turkic, Uyghur-Uzbek",ISO 639-3: uzb,uzbe1247,Uzbekistan,,62302,62302,,62302,,,,UZBEK,Eb8,,,,,wiki,"The Uzbeks were the third largest ethnic group of the former Soviet Union when it fell apart in 1991. Even though Uzbeks were originally nomads, most of them have been settled for more than three hundred years. ",,,@Murdock1967EA @Murdock1968WorldSamplingProvinces @Lomax1989Cantometrics @ArensbergLomax1977Subsistence @Koppen2006UpdatedWorldMap @Glottouzbe1247 @Ethnouzb @WikiUzbeks  
30.65,104.07,31.05,110.62,East Asia,China,C China,C Yangtze,C Chinese Village,,C Han,,Han Chinese Peoples,Old Eurasia,,2,,4,,Warm Oceanic Humid Subtropical,Cfa,,,Wuhan Mandarin,Northern Chinese,Sinitic,Sino-Tibetan,"Sino-Tibetan, Sinitic, Northern Chinese, Mandarinic, Mandarin Chinese, Southwestern Guanhua",,wuha1234,China,,62309,62309,,62309,,,,,,,,,,wiki,,,,@Murdock1967EA @Murdock1968WorldSamplingProvinces @Lomax1989Cantometrics @Koppen2006UpdatedWorldMap @Glottowuha1234   @WikiHubei 
29.02,114.83,32.35,119.85,East Asia,China,E China,Lower Yangtze ,Lower Yangtze,,Cantonese E Han,,Han Chinese Peoples,Old Eurasia,,4,,1,,"Warm Oceanic Humid Subtropical, Dry Winter Humid Subtropical","Cfa, Cwa",,,Wu Chinese,Wu-Hui Chinese,Sinitic,Sino-Tibetan,"Sino-Tibetan, Sinitic, Wu-Hui Chinese",ISO 639-3: wuu,wuch1236,China,,13668,13668,,13668,,,,CHINA:HAN-WORK,Ed16,13668,,,,wiki,,,,@Murdock1967EA @Murdock1968WorldSamplingProvinces @Lomax1989Cantometrics @Koppen2006UpdatedWorldMap @Glottowuch1236 @Ethnowuu @WikiYangtze  
39,100,37.75,99.78,East Asia,China,N W China,N Tibetan Plateau,Monguor,Tu; White Mongol; Tsagaan Mongol,Tu,,Tu People,Old Eurasia,,,,2,,Tundra,ET,PA-Middle East,scfal1173,Tu,Shirongol,Southern Periphery Mongolic,Mongolic-Khitan,"Mongolic-Khitan, Southern Periphery Mongolic, Shirongol",ISO 639-3: mjg,tuuu1240,China,,21649,,,21649,,,,MONGUOR,Eb2,,Mongols,82,37204,wiki,,,,@Murdock1967EA @Murdock1968WorldSamplingProvinces @Lomax1989Cantometrics @ArensbergLomax1977Subsistence @Koppen2006UpdatedWorldMap @Glottotuuu1240 @Ethnomjg @WikiMonguor  
,,36.29,138,East Asia,Japan,Japan General,Japan General,Japan Unspecified,Yamato,Urban Japanese/ Japanese Villagers,,Japanese Peoples,,,,,1,,,,PA-East Asian Irrigation,scfal1069,Japanese,Japanese,Japanese,Japonic,"Japonic, Japanesic, Japan-Taiwan Japanese",ISO 639-3: jpn,nucl1643,Japan,,62532,,,62532,,,,JAPANESE,Ed5,,Japan,79,,wiki,,,,@Murdock1967EA @Murdock1968WorldSamplingProvinces @Lomax1989Cantometrics @ArensbergLomax1977Subsistence @Koppen2006UpdatedWorldMap @Glottonucl1643 @Ethnojpn @WikiJapanesePeople
37.51,128.12,37.55,126.99,East Asia,South Korea,N W South Korea,Seoul,Urban S Korea,,Urban Koreans,,Korean Peoples,Old Eurasia,1943; 1959; 1963; 1983,8,,1,,Hot Summer Continental,Dwa,PA-East Asian Irrigation,scfal1071,Seoul,Seoul,Korean,Koreanic,"Koreanic, Korean",,seou1239,South Korea,,18932,18932,,18932,,18932,,KOREANS,Ed1,18932,,,62537,wiki,"For many years, it was believed that the Korean people initially may have had connections with the people of Central Asia, the Lake Baikal area of Siberia, Mongolia, and the coastal areas of the Yellow Sea. 2017 genetic analysis of bones discovered in Primorye kray in Far Eastern Russia proposed that Koreans were linked to a population that had inhabited that area for at least 77 centuries.",,,@Murdock1967EA @Murdock1968WorldSamplingProvinces @Lomax1989Cantometrics @ArensbergLomax1977Subsistence @Koppen2006UpdatedWorldMap @Glottoseou1239  @WikiSeoul  
48.2,16.37,47.35,11.98,Europe,Central Europe,Alpine Europe,Austrian Alps,Austria,,Tyroleans,Alpine Peoples,Germanic Peoples,Old Europe,,,,1,,"Cold, No Dry Season/ Warm Summer",Dfb,,,Bavarian (also known as Austro-Bavarian),High German,Germanic,Indo-European,"Indo-European, Germanic, West Germanic, Modern High German, Bairisch",ISO 639-3: bar,bava1246,Austria,,27831,,,27831,,,,,,,,,,wiki,,,,@Murdock1968WorldSamplingProvinces @Lomax1989Cantometrics @Koppen2006UpdatedWorldMap @Glottobava1246 @Ethnobar @WikiAustrians  
51.43,7.66,51.35,7.42,Europe,Central Europe,Germany,N Rhine-Westphalia,Rhine-Westphalia,Nordrhein-Westfalen,Westphalian Germans,Midde Europeans,Germanic Peoples,Old Europe,1955; 1958,2,,1,,"Temperate, No Dry Season/ Warm Summer",Cfb,,,Westphalic,North Sea Germanic,Germanic,Indo-European,"Indo-European, Germanic, West Germanic, Low German",ISO 639-3: wep,west2356,Germany,,15841,15841,,15841,,,,GERMANY:WEST PHALIA,,15841,,,,wiki,,,,@Murdock1967EA @Murdock1968WorldSamplingProvinces @Lomax1989Cantometrics @Koppen2006UpdatedWorldMap @Glottowest2356 @Ethnowep @WikiRhineWestphalia  
51.91,19.14,51.78,19.08,Europe,Eastern Europe,Poland,C Poland,C Polish Folk,,Poles,West Slavs,Slavic Peoples,Old Europe,1954;,3,,1,,"Cold, No Dry Season/ Warm Summer",Dfb,,,Polish,West Slavic,Balto-Slavic,Indo-European,"Indo-European, Balto-Slavic, Slavic, Lechitic",ISO 639-3: pol,poli1260,Poland,,23827,23827,,23827,,23827,,POLISH,,23827,,,,wiki,,,,@Murdock1967EA @Murdock1968WorldSamplingProvinces @Lomax1989Cantometrics @Koppen2006UpdatedWorldMap @Glottopoli1260 @Ethnopol @WikiPoles  
64.76,25.56,63.23,25.94,Europe,Northern Europe,Baltic Region,Finland,Finnish,Finns; Suomalaiset; Finnar,Baltic Peoples,Finno-Ugric Peoples,Uralic Peoples,Western Europe,1951; 1953; 1962,6,,1,,"Cold, No Dry Season/ Cold Summer",Dfc,,,Finnish,North Finnic,Finnic,Uralic,"Uralic, Finnic, Neva, Nuclear Finnish",ISO 639-3: fin,finn1318,Finland,,15313,15313,,15313,,,,FINLAND,,15313,,,,wiki,,,,@Murdock1967EA @Murdock1968WorldSamplingProvinces @Lomax1989Cantometrics @Koppen2006UpdatedWorldMap @Glottofinn1318 @Ethnofin @WikiFinns  
56.83,24.31,56.8,25.36,Europe,Northern Europe,Baltic Region,Latvia,Latvian,Latvija; Latvieši,Baltic Peoples,Finno-Ugric Peoples,Uralic Peoples,Old Europe,1950; 1951; 1960; 1962; 1964; 1971; 1951-64;,12,,1,,Cold No Dry Season/ Warm Summer,Dfb,,,Latvian,Eastern Baltic,Balto-Slavic,Indo-European,"Indo-European, Balto-Slavic, Eastern Baltic",ISO 639-3: lav, latv1249,Latvia,,19724,19724,,19724,,,,LATVIANS,ch21,19724,,,,wiki,,,,@Murdock1967EA @Murdock1968WorldSamplingProvinces @Lomax1989Cantometrics @Koppen2006UpdatedWorldMap @Glottolatv1249 @Ethnolav @WikiLatvians  
64,-20,64.63,-18.88,Europe,Northern Europe,Nordic Region,Iceland,Icelander,Íslendingar,Icelandic Norse,Scandinavians,Nordic Peoples,Western Europe,,,,1,,Subpolar Oceanic,Cfc,PA-Europe,scfal1110,Icelandic,North Germanic,Germanic,Indo-European,"Indo-European, Germanic, North Germanic, West Scandinavian, Icelandic-Faroese",ISO 639-3: isl,icel1247,Iceland,,17007,,,17007,,,,ICELANDERS,Cg2,,Northwestern Europe,57,28482,wiki,,,,@Murdock1967EA @Murdock1968WorldSamplingProvinces @Lomax1989Cantometrics @ArensbergLomax1977Subsistence @Koppen2006UpdatedWorldMap @Glottoicel1247 @Ethnoisl @WikiIcelanders  
60.29,14.97,61.22,14.89,Europe,Northern Europe,Nordic Region,Sweden,Swedish,Swedes; Svenskar; Suecia; Shvetsiya,Swedish,Scandinavians,Nordic Peoples,Old Europe,1955,1,,1,,Cold No Dry Season/ Cold Summer,Dfc,,,Swedish,North Germanic,Germanic,Indo-European,"Indo-European, Germanic, North Germanic, North Scandinavian, East-Central Swedic, East Swedic",ISO 639-3: swe,swed1254,Sweden,,26340,26340,,26340,,,,SWEDISH,,26340,,,,wiki,,,,@Murdock1967EA @Murdock1968WorldSamplingProvinces @Lomax1989Cantometrics @Koppen2006UpdatedWorldMap @Glottoswed1254 @Ethnoswe @WikiSwedes  
47.27,39.79,58.69,44.4,Europe,Russia,Central Federal Dist,Urals/ Volga-Unzha R,Bryanskaya,Bryansk; Bryanskaya oblast,European Russians,Eastern Slavs,Slavic Peoples,Old Europe,1954,3,,1,,Cold No Dry Season/ Warm Summer,Dfb,,,Russian,East Slavic,Balto-Slavic,Indo-European,"Indo-European, Balto-Slavic, Slavic",ISO 639-3: rus,russ1263,Russia,,13321,13321,,13321,,,,,Ch11,,,,,wiki,,,,@Murdock1967EA @Murdock1968WorldSamplingProvinces @Lomax1989Cantometrics @Koppen2006UpdatedWorldMap @Glottoruss1263 @Ethnorus @WikiBryansk  
57.08,58.83,56.44,48,Europe,Russia,Volga Dist,Mari El Rep,Mari,Çirmeş; Cheremis,Mari Peoples,Finno-Ugric Peoples,Uralic Peoples,Old Europe,1953; 1954; 1958,11,,1,,"Cold, No Dry Season/ Warm Summer",Dfb,PA-Europe,scfal1097,Mari,Mari,Mari,Uralic,Uralic,ISO 639-3: chm,mari1278,Russia,,13520,13520,,13520,,,,CHEREMIS,Ch4,13520,Northeastern Europe,59,53300,wiki,,,,@Murdock1967EA @Murdock1968WorldSamplingProvinces @Lomax1989Cantometrics @ArensbergLomax1977Subsistence @Koppen2006UpdatedWorldMap @Glottomari1278 @Ethnochm @WikiMari  
55.55,50.93,56.13,53.37,Europe,Russia,Volga Dist,Tatarstan,Volga Tatars,Tatar,Tatars,Kipchak Peoples,Turkic Peoples,Central Asia,1956; 1958; 1975; 1950s,10,,1,,"Cold No Dry Season/ Hot Summer, Cold No Dry Season/ Warm Summer","Dfa, Dfb",,,Tatar,Oghuz,Common Turkic,Turkic,"Turkic, Oghuz, Kipchak",ISO 639-3: tat,tata1255,Russia,,26654,26654,,26654,,,,KAZAN TATAR,ch20,26654,,,,wiki,"The Tatar people are descended from the Kïpchak Turkic peoples who inhabited the western wing of the Mongol Empire, the ulus of Dzhuchi. By the 16th century, Volga Tatars were living in the area of the middle Volga River, which included the northern lands of the former Muslim state of the Turkic people called ""Bulghar."" The area was later amassed by Mongol invaders into one state known as the Golden Horde and as the Mongols never forced their conquered lands into a unified Mongol culture, the area became a melting pot. Thus the ancestors of the Volga Tatars, the Bulghars and the Kïpchak Turkic tribes inhabiting the lands of the Horde, participated an the ethnic and cultural synthesis. As a result Tatar music is an important link between Chinese and Mongol tradition and Hungarian musical styles.",,,@Murdock1967EA @Murdock1968WorldSamplingProvinces @Lomax1989Cantometrics @Koppen2006UpdatedWorldMap @Glottotata1255 @Ethnotat @WikiVolgaTatars  
42.32,21.38,41.86,19.98,Europe,Southeast Europe/ Balkans,Albania,Ghegeria,Ghegs,Shqipëria; N Albanians,Gheg Albanians,Balkan-Carpathian Peoples,Illyrian People,European Pastoralists,1965,2,,1,,Cold No Dry Season/ Warm Summer,Dfb,PA-Middle East,scfal1132,Gheg Albanian,Gheg Albanian,Albanian,Indo-European,"Indo-European, Albanian",ISO 639-3: aln,gheg1238,Albania,,10297,10297,,10297,,,,GHEG,Ce1,10297,Balkans,55,14632,wiki,"The Ghegs of Northern Albania live in patrilineal tribal groups divided into clans headed by the oldest male. Land belongs to the clan, and people live in large, extended families. Historically they were predominantly herders and adhered to Circum-Mediterranean traditions of defending clan and family honor, hospitality, and the blood feud. The Ghegs speak Gheg Albanian, one of two main Albanian dialects, and are known for their sung epic poetry that kept alive their animosity for the Ottomans long after the latter had departed from the region.",,,@Murdock1967EA @Murdock1968WorldSamplingProvinces @Lomax1989Cantometrics @ArensbergLomax1977Subsistence @Koppen2006UpdatedWorldMap @Glottogheg1238 @Ethnoaln @WikiGhegs  
44.32,21.92,43.39,21.97,Europe,Southeast Europe/ Balkans,Serbia,"Nišava Dist, S E Serbia",Serbia,Serbs; Srbijanci; Szerbek,Serbs,South Slavs,Slavic Peoples,Old Europe,,1,,1,,Cold No Dry Season/ Warm Summer,Dfb,,,Serbian Standard,South Slavic,Balto-Slavic,Indo-European,"Indo-European, Balto-Slavic, Slavic, Serbian-Croatian-Bosnian, Shtokavski, Eastern Herzegovinian Shtokavian",ISO 639-3: srp,serb1264,Serbia,,30112,30112,,30112,,,,SERBS,Ch1,25220,Balkans,55,,wiki,,,,@Murdock1967EA @Murdock1968WorldSamplingProvinces @Lomax1989Cantometrics @Koppen2006UpdatedWorldMap @Glottoserb1264 @Ethnosrp @WikiSerbs  
37.98,23.73,38,23.7,Europe,Southern Europe,C Greece,Attica,Athens,,Attic Greeks,Balkan-Mediterranean Peoples,Greek Peoples,,,,,1,,Temperate Dry Summer/ Hot Summer,Csa,,,Greek,Greek,Graeco-Phrygian,Indo-European,"Indo-European, Graeco-Phrygian",ISO 639-3: ell,gree1276,Greece,,62541,,,62541,,,,,Ce7,,,,,wiki,,,,@Murdock1967EA @Murdock1968WorldSamplingProvinces @Koppen2006UpdatedWorldMap @Glottogree1276 @Ethnoell @WikiAthens
38.15,20.58,38,20.66,Europe,Southern Europe,Ionian Greece,Ionian Islands,Cephalonia,,Ionian Greeks,Western Greek Peoples,Greek Peoples,Western Europe,,,,1,,Temperate Dry Summer/ Hot Summer,Csa,,,Greek,Greek,Graeco-Phrygian,Indo-European,"Indo-European, Graeco-Phrygian",ISO 639-3: ell,gree1276,Greece,,16072,,,16072,,16072,,GREEKS,Ce7,,,,,wiki,,,,@Murdock1967EA @Murdock1968WorldSamplingProvinces @Lomax1989Cantometrics @Koppen2006UpdatedWorldMap @Glottogree1276  @WikiCephalonia  @Ethnoell
43.28,-1.32,43.12,-2.35,Europe,Southern Europe,N Spain,Basque Aut. Community & Navarre,Spanish Basques,Euskaldunak; Vascos; Bascos,Basque Peoples,Northern Iberians,Latin Peoples,Old Europe,1952,11,10,1,10,Temperate No Dry Season/ Warm Summer,Cfb,PA-Europe,scfal1091,Basque (language isolate),Basque (language isolate),Basque (language isolate),Basque (language isolate),Isolated language,ISO 639-3: eus,basq1248,Spain,,11804,11804,11804,11804,11804,11804,,BASQUES,Ce8,11804,Southern Europe,56,7214,wiki,,,,@Murdock1967EA @Murdock1968WorldSamplingProvinces @Lomax1989Cantometrics @ArensbergLomax1977Subsistence @Koppen2006UpdatedWorldMap @Glottobasq1248 @Ethnoeus @WikiBasques  
48.85,2.35,48.71,2.59,Europe,Western Europe,N C France,Île-de-France,Paris,,Parisian French,Urban French,Gallic Peoples,Western Europe,1931; 1949,2,,1,,Temperate No Dry Season/ Warm Summer,Cfb,PA-Europe,scfal1130,French,Oil,Latinic,Indo-European,"Indo-European, Italic, Latinic, Romance, Oil, Macro-French, Global French",ISO 639-3: fra,stan1290,France,,28568,28568,,28568,,,,FRANCE:WEST,,28568,,,39023,wiki,"Guilds were early associations of skilled workers or merchants within the same town or region. A cross between trade unions, cartels, and secret societies, guilds were bound by rituals, imagery, and song. In Paris, guilds of masters resulted in the formation of universities in the 1200s.",,,@Murdock1967EA @Murdock1968WorldSamplingProvinces @Lomax1989Cantometrics @ArensbergLomax1977Subsistence @Koppen2006UpdatedWorldMap @Glottostan1290 @Ethnofra @WikiParis  
52.01,-4.22,51.91,-4.13,Europe,Western Europe,Wales,"Carmarthenshire, S W Wales",Wales,Welsh; Cymry,Welsh,Anglo-Celts,Celtic Peoples,Western Europe,1952; 1955; 1950s,3,,1,,Temperate No Dry Season/ Warm Summer,Cfb,,,Welsh,Brythonic,Celtic,Indo-European,"Indo-European, Celtic, Brythonic, Old-Modern Welsh",ISO 639-3: cym,wels1247,Wales,,28436,28436,,28436,,,,WALES,,28436,,,,wiki,,,,@Murdock1967EA @Murdock1968WorldSamplingProvinces @Lomax1989Cantometrics @Koppen2006UpdatedWorldMap @Glottowels1247 @Ethnocym @WikiWelsh  
68.53,-89.83,64.28,-97.07,North America,Canada,C Canadian Arctic,Nunavut,Netsilik,Netsilingmiut,Central Inuit,Inuits,Arctic Indigenous Peoples,Circum-Pacific Hunter/ Foragers,1974-76,2,,1,,Tundra,ET,,,Natsilingmiutut,Western Canadian Inuktitut,Inuit,Eskimo-Aleut,"Eskimo-Aleut, Eskimo, Inuit, Western Canadian Inuktitut",,nets1241,Canada,,17234,17234,,17234,,17237,,,Na43,,Central and Eastern Eskimo,133,,wiki,,,,@Murdock1967EA @Murdock1968WorldSamplingProvinces @Lomax1989Cantometrics @Koppen2006UpdatedWorldMap @Glottonets1241  @WikiNetsilik  
50.97,-114.46,54.22,-114.6,North America,Canada,Canadian Plains,Alberta,Tsuutʼina,Sarcee; Sarsi; Tsu Tʼina; Tsuu Tʼina; Tsúùtínà,Dené,N Althabaskan Peoples,Plains Peoples,Circum-Pacific Hunter/ Foragers,,,,1,,"Temperate Continental/ Humid, Cool Continental/ Subarctic","Dfb, Dfc",HF-Plains,scfal268,Sarsi (also known as Tsuutʼina),Athabaskan,Athabaskan,Athapaskan-Eyak-Tlingit,"Athapaskan-Eyak-Tlingit, Northern Athapaskan",ISO 639-3: srs,sars1236,Canada,,25026,,,25026,,,,SARSI,Ne7,,Northern Plains,150,49761,wiki,,,,@Murdock1967EA @Murdock1968WorldSamplingProvinces @Lomax1989Cantometrics @ArensbergLomax1977Subsistence @Koppen2006UpdatedWorldMap @Glottosars1236 @Ethnosrs @WikiTsuutina  
49.51,-113.18,59.72,-106.13,North America,Canada,Canadian Plains,Alberta/ N W Territories/ Saskatchewan,Káínawa,Bloodback; Kainai; Kainawa; Blood,Blackfoot Algonquian,W Algonguian Peoples,Plains Peoples,Circum-Pacific Hunter/ Foragers,1914; 1953-54,8,7,1,,Temperate Continental/ Humid,Dfb,HF-Plains,scfal246,Siksika,Siksika,Algonquian-Blackfoot,Algic,"Algic, Algonquian",ISO 639-3: bla,siks1238,Canada; United States,,12343,12343,12343,12343,,12343,,BLOODBACK,Ne13,12343,Northern Plains,150,14128,wiki,"The Káínawa, or Many Chief People, belong to the Blackfoot Confederacy whose homelands are on the Oldman, Belly and St. Mary rivers, northeast of their present reservation in S. Alberta. In summer they gathered in large camps with the Siksikas and Piegans, other Blackfoot tribes; in winter they split off into small bands to hunt bison.",,,@Murdock1967EA @Murdock1968WorldSamplingProvinces @Lomax1989Cantometrics @ArensbergLomax1977Subsistence @Koppen2006UpdatedWorldMap @Glottosiks1238 @Ethnobla @WikiKainai  
54.38,-124.33,53.85,-124.59,North America,Canada,W Canadian Plateau,C British Columbia,Dakelh,Dakhelh; Carrier; Aghele,Dené N Athabaskan,N Althabaskan Peoples,Plateau Indigenous Peoples,Circum-Pacific Hunter/ Foragers,1920; 1942; 1943; 1920s,10,,1,,Cool Continental/ Subarctic,Dfc,HF-Plateau,scfal170,Dakelh,Central British Columbia Athabaskan,Athabaskan,Athapaskan-Eyak-Tlingit,"Athapaskan-Eyak-Tlingit, Northern Athabaskan",,carr1248,Canada,,13234,13234,,13234,,13234,,CARRIER,Na19,13234,Carrier-Nahani,138,45619,wiki,,,,@Murdock1967EA @Murdock1968WorldSamplingProvinces @Lomax1989Cantometrics @ArensbergLomax1977Subsistence @Koppen2006UpdatedWorldMap @Glottocarr1248  @WikiDakelh  
63.27,-123.64,63.54,-119.59,North America,Canada,W Canadian Subarctic,N W Territories,Sahtu Dene,Slavey; Dene; Hare; Dehcho; Slave,Dené,N Althabaskan Peoples,Subarctic Indigenous Peoples,Circum-Pacific Hunter/ Foragers,1913; 1957; 1961; 1920s,11,,1,,Cool Continental/ Subarctic,Dfc,HF-Arctic,scfal162,Slave,Northwestern Canada Athabaskan,Athabaskan,Athapaskan-Eyak-Tlingit,"Athapaskan-Eyak-Tlingit, Northern Athapaskan, Hare-Slavey",ISO 639-3: den,slav1253,Canada,,25730,25730,,25730,,,,SATUDENE; SLAVE,Na16,25730,Northeastern Athapaskans,134,33380,wiki,,,,@Murdock1967EA @Murdock1968WorldSamplingProvinces @Lomax1989Cantometrics @ArensbergLomax1977Subsistence @Koppen2006UpdatedWorldMap @Glottoslav1253 @Ethnoden @WikiSahtu  
60.31,-161.49,67.68,-160.39,North America,United States,Arctic Alaska,N W Alaska,Yu'pik,Yupik; Alaska Eskimo; Yu'pik Inuit,Yupik Peoples,Arctic Indigenous Peoples,Arctic Indigenous Peoples,Circum-Pacific Hunter/ Foragers,1946; 1954; 1962-63,11,8,1,,Tundra,ET,HF-Plateau,scfal167,Central Alaskan Yupik,Central Alaskan Yupik,Yupik,Eskimo-Aleut,"Eskimo-Aleut, Eskimo, Yupik",ISO 639-3: esu,cent2127,United States,,10286,10286,10286,10286,,10286,,ALASKA ESKIMO,,10286,,,11816,wiki,,,,@Murdock1967EA @Murdock1968WorldSamplingProvinces @Lomax1989Cantometrics @ArensbergLomax1977Subsistence @Koppen2006UpdatedWorldMap @Glottocent2127 @Ethnoesu @WikiYupik  
39.77,-121.52,38.27,-119.58,North America,United States,C California,Sierra Nevada,Konkow,Concow; Koyom'kawi; Maidu,Maidu Peoples,C California Peoples,California Indigenous Peoples,Circum-Pacific Hunter/ Foragers,,,,1,,Temperate Mediterranean,Csb,,,Northwest Maidu,Northwest Maidu,Northwest Maidu,Maiduan,Maiduan,ISO 639-3: mjd,nort2951,United States,,18877,,,18877,,,,MAIDU,Nc12,,,,,wiki,,,,@Murdock1967EA @Murdock1968WorldSamplingProvinces @Lomax1989Cantometrics @Koppen2006UpdatedWorldMap @Glottonort2951 @Ethnomjd @WikiMaidu  
45.41,-107.77,45.62,-108.67,North America,United States,Great Plains/ Central US,S Montana,Apsáalooke,Crow; Absaroka,Crow W Siouan,,Plains Peoples,Circum-Pacific Hunter/ Foragers,,,,1,,"Semi-arid Steppe Cold, Temperate Continental/ Humid","BSk, Dfb",,,Crow,Crow,Missouri River Siouan,Siouan,"Siouan, Missouri River Siouan",ISO 639-3: cro,crow1244,United States,,14169,,,14169,,,,CROW,Ne4,,Upper Missouri,154,22839,wiki,,,,@Murdock1967EA @Murdock1968WorldSamplingProvinces @Lomax1989Cantometrics @Koppen2006UpdatedWorldMap @Glottocrow1244 @Ethnocro @WikiCrow  
,,,,North America,United States,Kansas,Kansas,U.S. General,,Americans,Midwesterners,Plains Peoples,,1944; 1956; 1965; 1970,4,,4,,,,,,North American English,Anglic,Germanic,Indo-European,"Indo-European, Germanic, Anglo-Frisian, Anglic, Macro-English, English",,nort3314,United States,,62475,62475,,62475,,,,,,,,,,wiki,,,,@Murdock1967EA @Murdock1968WorldSamplingProvinces @Lomax1989Cantometrics @Koppen2006UpdatedWorldMap @Glottonort3314  @WikiAmericans  
41.01,-121.45,40.83,-122.05,North America,United States,N E California,Pit R,Achomawi,Achumawi; Ajumawi; Ahjumawi,Pit River Palaihnihan,,California Indigenous Peoples,Circum-Pacific Hunter/ Foragers,,,,1,,"Temperate Mediterranean, Temperate Continental/ Mediterranean","Csb, Dsb",HF-Plateau,scfal166,Achumawi,Achumawi,Achumawi,Palaihnihan,Palaihnihan,ISO 639-3: acv,achu1247,United States,,10110,,,10110,,,,ACHOMAWI,Nc10,,Northeast California,142,32295,wiki,,,,@Murdock1967EA @Murdock1968WorldSamplingProvinces @Lomax1989Cantometrics @ArensbergLomax1977Subsistence @Koppen2006UpdatedWorldMap @Glottoachu1247 @Ethnoacv @WikiAchomawi  
40.72,-74,40.67,-73.96,North America,United States,Northeast US,Urban Northeast,Chinese Immigrant,,Han Chinese,Chinese Americans,Chinese Peoples,,,,,1,,Warm Continental/ Humid,Dfa,,,Mandarin Chinese,Northern Chinese,Sinitic,Sino-Tibetan,"Sino-Tibetan, Sinitic, Northern Chinese, Mandarinic",ISO 639-3: cmn,mand1415,United States,,62545,,,62545,,,,,,,,,,wiki,,,,@Murdock1968WorldSamplingProvinces @Koppen2006UpdatedWorldMap @Glottomand1415 @Ethnocmn @WikiChineseAmericans
40.71,-74.01,40.67,-73.96,North America,United States,Northeast US,Urban Northeast,Greek Immigrant,,S European Americans,Greek Americans,Greek Peoples,,,,,1,,Warm Continental/ Humid,Dfa,,,Greek,Greek,Graeco-Phrygian,Indo-European,"Indo-European, Graeco-Phrygian",ISO 639-3: ell,gree1276,United States,,62542,,,62542,,,,,,,,,,wiki,,,,@Koppen2006UpdatedWorldMap @Murdock1968WorldSamplingProvinces @Ethnoell @Glottogree1276 @WikiGreekAmericans
40.71,-74.01,40.67,-73.96,North America,United States,Northeast US,Urban Northeast,New York Unspecified Ethnicity,,,,,,,,,4,,Warm Continental/ Humid,Dfa,,,New York City English,Anglic,Germanic,Indo-European,"Indo-European, Germanic, Anglo-Frisian, Anglic, Macro-English, English, North American English",,newy1234,United States,,62539,,,62539,,,,,,,,,,wiki,,,,@Koppen2006UpdatedWorldMap @Glottonewy1234 @WikiNewYorkCity
32.59,-88.19,32.92,-86.98,North America,United States,Southeast US,Alabama,Alabama Black,,Deep South African Americans,,West & Central African Peoples,,1937; 1940; 1959,4,,1,13,Warm Oceanic Humid Subtropical,Cfa,,,Southern American English,Anglic,Germanic,Indo-European,"Indo-European, Germanic, Anglo-Frisian, Anglic, Macro-English, English, North American English",,sout3302,United States,,62423,62423,,62423,62423,,,,,,,,,wiki,,,,@Murdock1967EA @Murdock1968WorldSamplingProvinces @Lomax1989Cantometrics @Koppen2006UpdatedWorldMap @Glottosout3302  @WikiAlabamaAfricanAmericans  
36.53,-82.71,36.53,-82.71,North America,United States,Southeast US,Appalachia,Appalachia,Country,Appalachian White ,,Celtic/ Anglo-Saxon Peoples,Western Europe,1927; 1928; 1929; 1930; 1936; 1937; 1939; 1941; 1946; 1956; 1957; 1958; 1959; 1960; 1962; 1999,35,6,4,15,Warm Oceanic Humid Subtropical,Cfa,PA-Europe,scfal1107,Southern American English,Anglic,Germanic,Indo-European,"Indo-European, Germanic, Anglo-Frisian, Anglic, Macro-English, English, North American English",,sout3302,United States,,18349,18349,18349,18349,18349,18349,,US SOUTH:WHITE; HILLBILLY,,18349; 16765,,,44359; 32065,wiki,,,,@Murdock1967EA @Murdock1968WorldSamplingProvinces @Lomax1989Cantometrics @ArensbergLomax1977Subsistence @Koppen2006UpdatedWorldMap @Glottosout3302  @WikiAppalachia  
35.14,-90.05,33.78,-90.71,North America,United States,Southeast US,Mississippi Delta,Memphis Black,,Delta African Americans,,West & Central African Peoples,Old Eurasia,1927; 1928; 1954; 1959,10,,1,,Warm Oceanic Humid Subtropical,Cfa,,,Southeast American English,Anglic,Germanic,Indo-European,"Indo-European, Germanic, Anglo-Frisian, Anglic, Macro-English, English, North American English",,sout3300,United States,,30063,30063,,30063,,,,,,,,,,wiki,,,,@Murdock1967EA @Murdock1968WorldSamplingProvinces @Lomax1989Cantometrics @Koppen2006UpdatedWorldMap @Glottosout3300  @WikiMemphis  
36.21,-110.08,37.01,-109.05,North America,United States,Southwest US,Arizona/ Utah/ New Mexico,Diné (Navaho),Navajo; Diné; Naabeehó; Navaho; Dene,Navajo S Athabaskan,,Southwest Indigenous Peoples,Circum-Pacific Hunter/ Foragers,1949; 1961; 1963; 1969; 1940-50,15,9,1,10,Temperate Continental/ Humid,Dfb,I-Desert,scfal376,Navajo,Apachean,Athabaskan,Athapaskan-Eyak-Tlingit,"Athapaskan-Eyak-Tlingit, Apachean",ISO 639-3: nav,nava1243,United States,,22243,22243,22243,22243,22243,22243,,NAVAHO,Nh3,22243,Pueblo-Navaho,162,58198,wiki,,,,@Murdock1967EA @Murdock1968WorldSamplingProvinces @Lomax1989Cantometrics @ArensbergLomax1977Subsistence @Koppen2006UpdatedWorldMap @Glottonava1243 @Ethnonav @WikiNavajo  
43.09,-79.06,43.64,-77.93,North America,United States/ Canada,Great Lakes/ N E Woodlands,Lake Ontario,Haudenosaunee,Iroquois,Six Nations Iroquoian,Iroquoian Peoples,Northeast Woodlands Peoples,Circum-Pacific Hunter/ Foragers,1941; 1945; 1950; 1957,16,9,1,,Temperate Continental,Dfb,I-Eastern,scfal357,Northern Iroquoian,Northern Iroquoian,Northern Iroquoian,Iroquoian,Iroquoian,,nort2947,United States,,17282,17282,17282,17282,,17282,,IROQUOIS,Ng10,17282,Northeastern Woodlands,156,33347,wiki,"The Haudenosaunee confederacy of Mohawk, Oneida, Cayuga, Seneca, Onondaga, and Tuscarora occupied S. Ontario and Quebec, NY, PA, WI and OK, trading with E. Coast tribes. After Europeans came they maintained autonomy by joining the fur trade and playing French and British against each other. After the Seven Years' War the Haudenosaunee lost influence and were reduced to their present reservations around Lake Ontario and Wisconsin.",,,@Murdock1967EA @Murdock1968WorldSamplingProvinces @Lomax1989Cantometrics @ArensbergLomax1977Subsistence @Koppen2006UpdatedWorldMap @Glottonort2947  @WikiIroquois  
46.57,-84.15,47.82,-87.2,North America,United States/ Canada,Great Lakes/ N E Woodlands,Lake Superior,Ojibwe,Chippewa,Ojibwa Algonquian,Algonquian Peoples,Northeast Woodlands Peoples,Circum-Pacific Hunter/ Foragers,1909; 1952,3,,1,,Temperate Continental,Dfb,HF-Arctic; HF-Prairie,scfal138; scfal152; scfal199,Nuclear Ojibwe,Eastern Great Lakes Algonquian,Algonquian-Blackfoot,Algic,"Algic, Algonquian, Ojibwa",,nucl1723,United States,,13718,13718,,13718,,13718,,CHIPPEWA; EASTERN OJIBWA,Na36,13718; 23068; 14939,Ojibwa,153,38453; 7258; 23354,wiki,,,,@Murdock1967EA @Murdock1968WorldSamplingProvinces @Lomax1989Cantometrics @ArensbergLomax1977Subsistence @Koppen2006UpdatedWorldMap @Glottonucl1723  @WikiOjibwe  
46.51,-78.99,46.51,-78.99,North America,United States/ Canada,N E Woodlands,S E Ontario/ S W Quebec,Algonquin,Anishinaabe,Ojibwa,Ojibwa-Potawatomi,Northeast Woodlands Indigenous Peoples,Circum-Pacific Hunter/ Foragers,,,,1,,Temperate Continental Humid,Dfb,,,Algonquin,Eastern Great Lakes Algonquian,Algonquian-Blackfoot,Algic,"Algic, Algonquian, Ojibwa-Potawatomi, Severn-Algonquin",ISO 639-3: alq,algo1255,Canada,,10341,,,10341,,,,,,,,,,wiki,,,,@Murdock1967EA @Murdock1968WorldSamplingProvinces @Lomax1989Cantometrics @Koppen2006UpdatedWorldMap @Glottoalgo1255 @Ethnoalq @WikiAlgonquin  
59.7,-139.87,59.98,-138.84,North America,United States/ Canada,N W Coast/ W Subarctic,S Alaska/ British Columbia/ Yukon,Tlingit,Tlinkit,Tlingit,N Althabaskan Peoples,Northeast Woodlands Peoples,Circum-Pacific Hunter/ Foragers,,,,1,,Cool Continental Subarctic,Dfc,,,Tlingit,Tlingit,Tlingit,Athabaskan-Eyak-Tlingit,Athabaskan-Eyak-Tlingit,ISO 639-3: tli,tlin1245,Canada; United States,,27193,,,27193,,,,TLINGIT,Nb22,,Northern Northwest Coast,137,14698,wiki,,,,@Murdock1967EA @Murdock1968WorldSamplingProvinces @Lomax1989Cantometrics @Koppen2006UpdatedWorldMap @Glottotlin1245 @Ethnotli @WikiTlingit  
47,132,48.82,130,North Eurasia,E North Eurasia,Far N E China/ Russian Far East,Manchuria,Nanai,Goldi; Hezhen; Hezhe; Golds; Samagir,C Tungusic Peoples,,Tungusic Peoples,Circum-Pacific Hunter/ Foragers,,,,1,,Humid Continental,Dwb,HF-Siberia,scfal236,Nanai,Central-Western Tungusic,Central Tungusic,Tungusic,"Tungusic, Central Tungusic",ISO 639-3: gld,nana1257,China; Russia,,16017,,,16017,,,,GOLDI,Ec9,,Manchu-Tungus,81,37182,wiki,,,,@Murdock1967EA @Murdock1968WorldSamplingProvinces @Lomax1989Cantometrics @ArensbergLomax1977Subsistence @Koppen2006UpdatedWorldMap @Glottonana1257 @Ethnogld @WikiNanai  
43.06,141.35,43.44,142.63,North Eurasia,E North Eurasia,N Japan,Hokkaidō,Hokkaido Ainu,Ezo; Yezo; Yeso; Yesso,Ainu,N Eurasian Peoples,Ainu Peoples,Old Eurasia,1943; 1954; 1957; 1959; Pre-1939,14,6,1,7,Warm Continental Humid,Dfa,,,Hokkaido Ainu,Hokkaido Ainu,Hokkaido-Kuril Ainu,Ainu,"Ainu, Hokkaido-Kuril Ainu",ISO 639-3: ain,ainu1240,Japan,,16809,16809,16809,16809,16809,,,AINU,Ec7,16809,Ainu,78,,wiki,"For extended period of time, Hokkaido was inhabitance of the aboriginal Ainu peoples. Previously, the territory was called Yezo; in 1869, it was renamed Hokkaido, which means ""North Sea Province"", after major Japanese settlement. Later, most Ainu adapted Japanese culture under the growing Japanese presence; however,handful numbers of Ainu people have kept their Ainu identity and culture, mainly in northern Hokkaido.",,,@Murdock1967EA @Murdock1968WorldSamplingProvinces @Lomax1989Cantometrics @Koppen2006UpdatedWorldMap @Glottoainu1240 @Ethnoain @WikiAinu  
52.59,140.68,53.03,142.08,North Eurasia,E North Eurasia,Russian Far East,Amur R/ N Sakhalin Island,Nivkh,Nivkhs; Nivkhi; Gilyak,Nivkh Peoples,,Paleo-Siberian Peoples,Siberia,1957,2,,1,,Humid Continental,Dfb,HF-Arctic,scfal139,Nivkh (language isolate),Nivkh (language isolate),Nivkh (language isolate),Nivkh (language isolate),Isolate,ISO 639-3: niv,gily1242,Russia,,15907,15907,,15907,,15907,,GILYAK,Ec1,15907,Gilyak,77,9022,wiki,"Guided by the clan, the Nivkh people's marriage traditions were very complex. With the clan, cross-cousin marriage appers to be the original custom. Howevere, latter that practice became necessity when the clan was not able to marry persons without breaking taboo. Most likely, the bride price was introduced by the Neo-Siberians. The clan people shared the dowry among themselves. Because the number of women was much less than the number of men and the bride prices were so high, it was hard to gain wives. As a result, the wealthier men would end up having more than one wife and the poor men without any.",,,@Murdock1967EA @Murdock1968WorldSamplingProvinces @Lomax1989Cantometrics @ArensbergLomax1977Subsistence @Koppen2006UpdatedWorldMap @Glottogily1242 @Ethnoniv @WikiNivkh  
68.64,170.04,65.99,-174.72,North Eurasia,E North Eurasia,Russian Far East,Chukchi Peninsula,Chaunsky Chuckchi,Chuckchee; Luorawetlan,Chukotko-Kamchatkan Peoples,,Paleo-Siberian Peoples,Siberia,1939; 1956,10,10,3,,Tundra,ET,AH-Siberia,scfal413,Chukchi,Chukchi,Chukotian,Chukotko-Kamchatkan,"Chukotko-Kamchatkan, Chukotian",ISO 639-3: ckt,chuk1273,Russia,,13850,13850,13850,13850,,13850,,CHUCKCHEE,Ec3,13850,Paleo-Siberians,76,6710,wiki,"Because of the harsh weather conditions and difficulty of life in the area where the Chukchi people live, hospitality and generosity are greatly valued among them. The Chukchi are convinced that all natural phenomena are thought to possess their own spirits. Cultural lifestyle still survives and practiced but it is to a great extent supplemented.",,,@Murdock1967EA @Murdock1968WorldSamplingProvinces @Lomax1989Cantometrics @ArensbergLomax1977Subsistence @Koppen2006UpdatedWorldMap @Glottochuk1273 @Ethnockt @WikiChukchi  
59.56,150.81,56.12,158.88,North Eurasia,E North Eurasia,Russian Far East,Kamchatka Peninsula,Even,Lamut,N Tungusic Peoples,,Tungusic Peoples,Circum-Pacific Hunter/ Foragers,,,,1,,Subarctic,Dfc,,,Even,Even,Northern Tungusic,Tungusic,"Tungusic, Northern Tungusic",ISO 639-3: eve,even1260,Russia,,15192,,,15192,,,,,,,,,,wiki,,,,@Murdock1967EA @Murdock1968WorldSamplingProvinces @Lomax1989Cantometrics @Koppen2006UpdatedWorldMap @Glottoeven1260 @Ethnoeve @WikiEvens  
61.71,133.98,61.14,126.59,North Eurasia,E North Eurasia,Russian Far East,Lena R,Yakut,Sakha; Caxa,N Siberian Turkic Peoples,,North Eurasia Turkic Peoples,Central Asia,1957; 1962,13,,1,,Subarctic,Dfd,P-Central Asian,scfal1014,Sakha (also known as Yakut),North Siberian Turkic,Common Turkic,Turkic,"Turkic, North Siberian Turkic",ISO 639-3: sah,yaku1245,Russia,,28898,28898,,28898,,28898,,YAKUT,Ec2,28898,Yakut,74,57968,wiki,"The Yakut of the Middle Lena River basin and the Aldan and Vilyuy rivers in Siberia, have been described as the 'aristocrats of the tundra' due to the differences between them and other Siberian peoples. The Yakut, or Sakhera, are a northern Turkic people and primarily pastoralist, whereas their neighbors were hunters and fishers. Yakut people believed in a spirit world. The Yakut exercised a form of totemism (faith in which people hold a religious connection with a spirit-being, for example a plant or animal) by which way, every clan or family had an animal guardian which they were prohibited to kill or call by name. The Yakut people's historical beliefs clam that the universe was constructed of three worlds: the upper world which was populated by gods, the middle world was occupied by people and spirits, and the lower world was the home of evil spirits. ",,,@Murdock1967EA @Murdock1968WorldSamplingProvinces @Lomax1989Cantometrics @ArensbergLomax1977Subsistence @Koppen2006UpdatedWorldMap @Glottoyaku1245 @Ethnosah @WikiYakuts  
66.18,71.02,68.04,59.52,North Eurasia,Siberia,N W Siberia,Nenets Aut. Okrug/ Yamalo-Nenets Aut. Okrug,Nenet,Samoyede; Yurak,Samoyedic Peoples,,Uralic Peoples,Siberia,1938; 1956,10,10,1,,Subarctic,Dfc,AH-Siberia,scfal415,Nenets,Enets-Nenets,Samoyedic,Uralic,"Uralic, Samoyedic, Enets-Nenets",,nene1251,Russia,,24806,24806,24806,24806,,,,YURAK,Ec4,24806,Ostyak-Samoyed,73,58976,wiki,"The Nenets, formerly called Samoyeds, inhabit a very wide swathe of northern Russia and are divided into two distinct culture groups: Forest and Tundra. Their language belongs to the Samoyed division of the Uralian branch of the Uralo-Altaic lfamily.The Nenets people practice shamanisim and animisim (religiuos belief that suggests that everything surrounding people, such as objects, places and creatures, have a unique spiritual essence) that emphasize admiration and respect for the land and its resources. Their social structure was a clan-based.",,,@Murdock1967EA @Murdock1968WorldSamplingProvinces @Lomax1989Cantometrics @ArensbergLomax1977Subsistence @Koppen2006UpdatedWorldMap @Glottonene1251  @WikiNenets  
62.43,66.12,57.51,68.07,North Eurasia,Siberia,S W Siberia,Tyumen Ob,Khanty,Khanti; Khande; Kantek; Ostyaks; Ostiak,Ob Finno-Ugric Peoples,,Uralic Peoples,Circum-Pacific Hunter/ Foragers; Siberia,1952; 1956,10,,2,,Subarctic,Dfc,HF-Siberia,scfal239,Khantyic,Khantyic,Khantyic,Uralic,Uralic,,khan1279,Russia,,18431,18431,,18431,,18431,,OB OSTYAK,Ec10,18431; 23222,Ostyak-Samoyed,73,46682,wiki,"In the pre-Soviet period the term Ostyak was applied to a wide variety of groups who lived in the West Siberian Lowland, or Ob basin, as well as to their languages. Even currently, some of the northern groups of Khanty still practice a semi-nomadic life. In the spring and autumn, they tent to migrate with their reindeer herds. As their transportation, northern group of the Khanty people, use mostly  reindeers. Howevere, in winter, further south, dogs were used for transport. ",,,@Murdock1967EA @Murdock1968WorldSamplingProvinces @Lomax1989Cantometrics @ArensbergLomax1977Subsistence @Koppen2006UpdatedWorldMap @Glottokhan1279  @WikiKhanty  
70.67,130.91,66.33,97.03,North Eurasia,Siberia,Siberia,Siberian Taiga,Evenki,Tungusic; Evenki; Ewenki; Tunguz,N Tungusic Peoples,,Tungusic Peoples,Circum-Pacific Hunter/ Foragers,1962,11,,2,,Subarctic,Dfc,AH-Siberia,scfal417,Evenki,Northwestern Tungusic,Northern Tungusic,Tungusic,Tungusic,ISO 639-3: evn,even1259,China; Russia,,27666,27666,,27666,,,,TUNGUS,ec16,27666,,,4716,wiki,"Historically, the Tungus people were established in clans by following their descent along paternal lines. Common forefather spirits were invoked in the prayers when the members of a clan had a communal fire. Every clan had and was guided by a group of elders and the clan shaman.",,,@Murdock1967EA @Murdock1968WorldSamplingProvinces @Lomax1989Cantometrics @ArensbergLomax1977Subsistence @Koppen2006UpdatedWorldMap @Glottoeven1259 @Ethnoevn @WikiEvenks  
-8.07,146.21,-7.21,144.64,Oceania,Melanesia,Papua New Guinea,Gulf Prov,Toaripi,East Elema; Melaripi; Motumotu,Eleman,,Melanesian Peoples,Warm Latitude Gardeners,1950; Unknown,2,,2,,Tropical Rainforest,Af,,,Toaripi,Toaripi,Eastern Eleman,Eleman,"Eleman, Eastern Eleman",ISO 639-3: tqo,toar1246,Papua New Guinea,,27204,27204,,27204,,,,TOARIPI,,27204,,,,wiki,,,,@Murdock1967EA @Murdock1968WorldSamplingProvinces @Lomax1989Cantometrics @Koppen2006UpdatedWorldMap @Glottotoar1246 @Ethnotqo @WikiToaripi  
-5.16,145.62,-5.16,145.31,Oceania,Melanesia,Papua New Guinea,Madang Prov,Gal,,Madang Papuan,,,,,,,1,,Tropical Rainforest,Af,,,Gal,Croisilles,Madang,Nuclear Trans New Guinea,"Nuclear Trans New Guinea, Madang, Croisilles, Mabuso, Hanseman, Garuh-Foran,",ISO 639-3: gap,gall1278,Papua New Guinea,,62535,,,62535,,,,,,,,,,wiki,,,,@Murdock1968WorldSamplingProvinces @Koppen2006UpdatedWorldMap @WikiGalLanguage @Glottogall1278 @Ethnogap
-11.34,154.17,-10.3,150.2,Oceania,Melanesia,Papua New Guinea,Milne Bay Prov,Rossel Island,Yèlî,Yele,,Melanesian Peoples,,,,,1,,Tropical Rainforest,Af,Ux (Undifferentiated Extractors),scfal115,Yele (language isolate),Yele (language isolate),Yele (language isolate),Yele (language isolate),Isolated language,ISO 639-3: yle,yele1255,Papua New Guinea,,50270,,,50270,,,,ROSSEL,Ig11,,Massim,122,6239,wiki,,,,@Murdock1967EA @Murdock1968WorldSamplingProvinces @Lomax1989Cantometrics @ArensbergLomax1977Subsistence @Koppen2006UpdatedWorldMap @Glottoyele1255 @Ethnoyle @WikiRosselIsl  
-4.52,159.39,-4.53,159.43,Oceania,Melanesia,Papua New Guinea,Nukumanu Islands,Nukumanu,,Polynesian Austronesian,,Melanesian Peoples,Warm Latitude Gardeners,1950; 1953-58,3,,1,,Tropical Rainforest,Af,,,Nukumanu,Tokelau-Fijian,Malayo-Polynesian,Austronesian,"Austronesian, Malayo-Polynesian, Oceanic, Polynesian, Takuuic",ISO 639-3: nuq,nuku1258,Papua New Guinea,,22881,22881,,22881,,,,NUKUMANU,,22881,,,,wiki,,,,@Murdock1967EA @Murdock1968WorldSamplingProvinces @Lomax1989Cantometrics @Koppen2006UpdatedWorldMap @Glottonuku1258 @Ethnonuq @WikiNukumanuIsl  
-3.91,141.75,-3.61,141.6,Oceania,Melanesia,Papua New Guinea,Sandaun Prov,Lujere,Yellow River People,Sepik,,Melanesian Peoples,,,,,1,,Tropical Rainforest,Af,,,Namia,Namia,Yellow River,Sepik,"Sepik, Yellow River",ISO 639-3: nnm,nami1256,Papua New Guinea,,62530,,,62530,,,,,,,,,,wiki,,,,@Murdock1968WorldSamplingProvinces @Koppen2006UpdatedWorldMap  @Mitchell1975WestSepikTherapeuticSystems @WikiNamiaLanguage @Glottonami1256 @Ethnonnm
-4,144,-3.38,142.25,Oceania,Melanesia,Papua New Guinea,Torricelli Mtns,Arapesh,,Nuclear Torricelli,,Melanesian Peoples,Warm Latitude Gardeners,,,,1,,Tropical Rainforest,Af,AH-Melanesia,scfal423,Arapesh,Arapesh,Kombio-Arapesh-Urat,Nuclear Torricelli,"Nuclear Torricelli, Kombio-Arapesh-Urat",,arap1279,Papua New Guinea,,10803,,,10803,,,,ARAPESH,Ie3,,Northeastern New Guinea,113,13098,wiki,,,,@Murdock1967EA @Murdock1968WorldSamplingProvinces @Lomax1989Cantometrics @ArensbergLomax1977Subsistence @Koppen2006UpdatedWorldMap @Glottoarap1279  @WikiArapesh  
-3.71,141.68,-3.38,142.25,Oceania,Melanesia,Papua New Guinea,Torricelli Mtns,Wape,Olo; Wapei; Wapë; Wapi,Nuclear Torricelli,,Melanesian Peoples,Warm Latitude Gardeners,1970; 1971,10,,1,,Tropical Rainforest,Af,,,Olo,Olo-Elkei,Au-Olo-Elkei,Nuclear Torricelli,"Nuclear Torricelli, Au-Olo-Elkei, Olo-Elkei",ISO 639-3: ong,oloo1241,Papua New Guinea,,28456,28456,,28456,,,,WAPE,,28485,,,,,,,,@Murdock1967EA @Murdock1968WorldSamplingProvinces @Lomax1989Cantometrics @Koppen2006UpdatedWorldMap @Glottooloo1241 @Ethnoong @EWCWape  
-5.81,138.47,-5.27,138.56,Oceania,Melanesia,"Papua, Indonesia",Asmat Reg,Coastal Asmat,Asmat-ow; Samot; Basim,Asmat-Awyu-Ok Papuan,,Melanesian Peoples,Warm Latitude Gardeners,1970,7,,1,,Tropical Rainforest,Af,,,Casuarina Coast Asmat,Asmat,Asmat-Awyu-Ok,Nuclear Trans New Guinea,"Nuclear Trans New Guinea, Asmat-Awyu-Ok, Asmat-Kamoro, Asmat",ISO 639-3: asc,casu1237,Papua New Guinea,,10962,10962,,10962,,,,ASMAT,,10962,,,,wiki,"Traditionally, the Asmat were subsistence-based, relying upon a combination of hunting, fishing, and gathering activities, which continue today. Horticultural activity first was introduced in the late 1950s. Processed stipe of the sago palm remains the dietary staple. First under Dutch and then Indonesian auspices, a partial wage-based economy has been introduced. The determination of which scattered groups constitute the Asmat is, in part, an artifact of outside intervention and classification processes of pre-1963 Dutch occupation.Cultural life of the Asmat people such as art, music, and oral literature are closely connected to ceremonial and socioeconomic cycles. For the Asmat society music has many diverse purposes and it is used as a social status illustration, social binding, recreation, Political oratory, cure, and cultural transmission. ",,,@Murdock1967EA @Murdock1968WorldSamplingProvinces @Lomax1989Cantometrics @Koppen2006UpdatedWorldMap @Glottocasu1237 @Ethnoasc @WikiAsmat  
-3.77,138.22,-3.27,139.4,Oceania,Melanesia,"Papua, Indonesia","Baliem Valley, C Papuan HIghlands",Dani,Ndani; Lani,Dani Papuan,,Melanesian Peoples,Warm Latitude Gardeners,1961; 1973,14,,1,,Tropical Rainforest,Af,AH-Melanesia,scfal429,Dani,Dani,Dani,Nuclear Trans New Guinea,Nuclear Trans New Guinea,,dani1287,Papua New Guinea,,14378,14378,,14378,,14378,,DANI,Ie38	,14378,,,10808,wiki,,,,@Murdock1967EA @Murdock1968WorldSamplingProvinces @Lomax1989Cantometrics @ArensbergLomax1977Subsistence @Koppen2006UpdatedWorldMap @Glottodani1287  @WikiDani  
-16.2,167.2,-16.33,167.54,Oceania,Melanesia,Rep of Vanuatu,Malekula Island,Big Nambas,Nambas,C Vanuatu Austronesian,,Melanesian Peoples,Warm Latitude Gardeners,,,,1,,Tropical Rainforest,Af,AH-Melanesia,scfal425,Big Nambas,Central Vanuatu,Malayo-Polynesian,Austronesian,"Austronesian, Malayo-Polynesian, Oceanic, Central Vanuatu, Malakula",ISO 639-3: nmb,bign1238,Vanuatu,,12200,,,12200,,12200,,BIG NAMBA,,,,,43055,wiki,,,,@Murdock1967EA @Murdock1968WorldSamplingProvinces @Lomax1989Cantometrics @ArensbergLomax1977Subsistence @Koppen2006UpdatedWorldMap  @Ethnonmb @WikiBigNambas  @Glottobign1238
-15.95,168.26,-15.75,168.19,Oceania,Melanesia,Rep of Vanuatu,Pentecost Island,Bunlap,Pentecost,C Vanuatu Austronesian,,Melanesian Peoples,Warm Latitude Foragers,1969,4,,3,,Tropical Rainforest,Af,AH-Melanesia,scfal426,Sa,Central Vanuatu,Malayo-Polynesian,Austronesian,"Austronesian, Malayo-Polynesian, Oceanic, North and Central Vanuatu, Central Vanuatu, South Pentecost",ISO 639-3: sax,saaa1241,Vanuatu,,12816,12816,,12816,,12816,,BUNLAP,Ih3,12816,New Hebrides,126,4146,wiki,"Speakers of Sa from Pentecost Island, Vanuatu, represent a successful, radically traditionalist approach to language maintenance. Their villages embrace kastom (custom, culture) and reject Christian missions and the schooling that goes with them. Bunlap residents continue to lead traditional lives, with a subsistence economy based on yams, horticulture, and a wide range of forest products, supplemented by exports of kava and earnings from staged land-diving (forerunner to bungee jumping) for tourists. Sa is the first language; some men learn Bilama, Vanuatu’s national language.",,,@Murdock1967EA @Murdock1968WorldSamplingProvinces @Lomax1989Cantometrics @ArensbergLomax1977Subsistence @Koppen2006UpdatedWorldMap @Glottosaaa1241 @Ethnosax @WikiBunlap  
-11.66,160.21,-11.62,160.16,Oceania,Melanesia,Solomon Islands,Rennell and Bellona Prov,Mugaba,Rennell; Rennellese,Polynesian Austronesian,,Melanesian Peoples,Warm Latitude Gardeners,1933; 1950;,3,,1,,Tropical Rainforest,Af,AH-Eastern Maritimes,scfal509,Rennell-Bellona,Tokelau-Fijian,Malayo-Polynesian,Austronesian,"Austronesian, Malayo-Polynesian, Oceanic, Tokelau-Fijian, Polynesian",ISO 639-3: mnv,renn1242,Solomon Islands,,24245,24245,,24245,,,,RENNELL ISLAND,Ii10,24245,Isolated Mid-Pacific Islands,124,46430,wiki,,,,@Murdock1967EA @Murdock1968WorldSamplingProvinces @Lomax1989Cantometrics @ArensbergLomax1977Subsistence @Koppen2006UpdatedWorldMap  @Ethnomnv @WikiRennell  @Glottorenn1242
7.48,134.51,7.5,134.56,Oceania,Micronesia,S W Micronesia,"Palau Islands, Rep of Palau",Palau,Palauan; Belau; Pelew,Palauan Austronesian,,Micronesian Peoples,Warm Latitude Gardeners,1950;,11,,1,,Tropical Rainforest,Af,AH-Western Maritimes,scfal484,Palauan,Palauan,Malayo-Polynesian,Austronesian,"Austronesian, Malayo-Polynesian",ISO 639-3: pau,pala1344,Federated States of Micronesia,,23354,23354,,23354,,23354,,PALAUANS,If1,23354,Palau and Marianas,115,14939,wiki,,,,@Murdock1967EA @Murdock1968WorldSamplingProvinces @Lomax1989Cantometrics @ArensbergLomax1977Subsistence @Koppen2006UpdatedWorldMap  @Ethnopau @WikiPalau  @Glottopala1344
15,145,14.93,145.7,Oceania,Micronesia,W Micronesia,Mariana Islands,Chamorro,,Chamorro Austronesian,,Micronesian Peoples,Warm Latitude Gardeners,,,,1,,Tropical Rainforest,Af,AH-Island Malay,scfal533,Chamorro,Chamorro,Malayo-Polynesian,Austronesian,"Austronesian, Malayo-Polynesian",ISO 639-3: cha,cham1312,United States,,13454,,,13454,,,,CHAMORRO,If8,,Palau and Marianas,115,36404,wiki,,,,@Murdock1967EA @Murdock1968WorldSamplingProvinces @Lomax1989Cantometrics @ArensbergLomax1977Subsistence @Koppen2006UpdatedWorldMap @Glottocham1312 @Ethnocha @WikiChamorro  
19.63,-155.43,21.03,-156.84,Oceania,Polynesia,N Polynesia,Hawai'ian Archipelago,Native Hawai'i,,E Polynesian Austronesian,,Polynesian Peoples,Warm Latitude Gardeners,1936; 1950; 1958; 1992,13,,2,,Monsoon,Am,AH-Eastern Maritimes,scfal500,Hawaiian,Tokelau-Fijian,Malayo-Polynesian,Austronesian,"Austronesian, Malayo-Polynesian, Oceanic, Tokelau-Fijian, Polynesian, Central Eastern Polynesian",ISO 639-3: haw,hawa1245,United States,,16611,16611,,16611,,,,HAWAIIANS,Ij6,16611,Eastern Polynesia,131,58176,wiki,"The Native Hawaiian people are the Aboriginal Polynesians of the Hawaiian Islands. In other occasions it was determined that they most likely descendants of the Aboriginal Polynesian people. Native Hawaiians, themsleves, find their origins back to the native Polynesian settlers of Hawaiʻi.",,,@Murdock1967EA @Murdock1968WorldSamplingProvinces @Lomax1989Cantometrics @ArensbergLomax1977Subsistence @Koppen2006UpdatedWorldMap  @Ethnohaw @WikiNativeHawaiians  @Glottohawa1245
-13.65,-172.36,-13.67,-172.02,Oceania,Polynesia,Samoa,Samoan Islands,Samoa,Samoan,E Polynesian Austronesian,,Polynesian Peoples,Warm Latitude Gardeners,1957; 1960; 1992;,16,,1,,Tropical Rainforest,Af,AH-Eastern Maritimes,scfal510,Samoan,Tokelau-Fijian,Malayo-Polynesian,Austronesian,"Austronesian, Malayo-Polynesian, Oceanic, Tokelau-Fijian, Polynesian, Ellicean, Samoan-Tokelauan",ISO 639-3: smo,samo1305,Samoa,,24795,24795,,24795,,24795,,SAMOANS,Ii1,24795,Western Polynesia,129,56160,wiki,"The Samoan people, are Polynesian native group indigenous to the Samoan Islands. Throughout Eastern Polynesia,the Samoan people and their culture shape a crucial link and bridge in the building and spreading of Polynesian culture, including religion and language.",,,@Murdock1967EA @Murdock1968WorldSamplingProvinces @Lomax1989Cantometrics @ArensbergLomax1977Subsistence @Koppen2006UpdatedWorldMap  @Ethnosmo @WikiSamoans  @Glottosamo1305
,,-11.25,-53.69,South America,Brazil General,Brazil General,Brazil General,Brazil Unspecified,,Brazil Latin Americans,Latin S. America,South American Criollos/ Mestizos,,,,,1,,Tropical Savannah,Aw,,,Brazilian Portuguese,Galician Romance,Latinic,Indo-European,"Indo-European, Italic, Latinic, Romance, Western Romance, West Ibero-Romance, Galician Romance, Macro-Portuguese, Brazil-Portugal Portuguese, Portuguese",,braz1246,Brazil,,62529,,,62529,,,,BRAZILIANS,Cf4,,Southern Europe,56,,wiki,,,,@Murdock1967EA @Murdock1968WorldSamplingProvinces @Koppen2006UpdatedWorldMap @Glottobraz1246 @WikiBrazilians
-3,-46,-2.67,-46.65,South America,C South America,E Amazon Basin,Gurupi R,Tenetehara,Tembé; Timbé; Guajajara,Tupi-Guarani,Tupian Peoples,Amazon Indigenous Peoples,Circum-Pacific Hunter/ Foragers,,,,1,,Monsoon,Am,I-Amazon,scfal327,Tenetehara,Tupi-Guarani,Maweti-Guarani,Tupian,"Tupian, Tupi-Guarani",ISO 639-3: tqb,temb1276,Brazil,,26841,,,26841,,,,TENETEHARA,Sj6,,Tupi,191,55656,wiki,,,,@Murdock1967EA @Murdock1968WorldSamplingProvinces @Lomax1989Cantometrics @ArensbergLomax1977Subsistence @Koppen2006UpdatedWorldMap @Glottotemb1276 @Ethnotqb @WikiTenetehara @Valadão2001Tembe  
-9.84,-52.75,-9.67,-52.6,South America,C South America,E Amazon Basin,Mato Grosso,Mebêngôkre,N Kayapó; Kayapo; Caiapó; Mebengokre; Gorotire; Kuben-Kran-Krên; Kôkraimôrô; Mekrãgnoti; Metyktire; Xikrin; N Kayapo,Kayapó Gê,Nuclear-Macro-Je Peoples,Amazon Indigenous Peoples,Circum-Pacific Hunter/ Foragers,1955; 1960; 1961,19,6,1,,Monsoon,Am,I-Amazon,scfal318,Kayapó,Je Setentrional,Je,Nuclear-Macro-Je,"Nuclear-Macro-Je, Je",ISO 639-3: txu,kaya1330,Brazil,,22045,22045,22045,22045,,22045,,COROA,Sj9,22045,Northern Ge,190,7510,wiki,"The Mebêngôkre, people of the wellspring, live in populous villages in the Mato Grosso and Pará in Brazil, south of the Amazon Basin and along the Xingu R. and its tributaries, practicing slash and burn farming, hunting with some fishing and gathering. Their society is communal and based on principles of egalitarianism, with a rich ceremonial component. Their well-developed social organization generates strength in leadership and solidarity to face threats to Mebêngôkre land and culture.",,,@Murdock1967EA @Murdock1968WorldSamplingProvinces @Lomax1989Cantometrics @ArensbergLomax1977Subsistence @Koppen2006UpdatedWorldMap  @Ethnotxu @WikiKayapo  @Glottokaya1330
-12,-59,-13,-60,South America,C South America,E Amazon Basin,Mato Grosso,Nambiquara,Nambicuara; Nambikwara; Nambikuára; Alaketesu; Anunsu; Mamaindê,Nambiquaran,Nambiquaran Peoples,Amazon Indigenous Peoples,Circum-Pacific Hunter/ Foragers,,,,1,,Tropical Savannah,Aw,C-South America,scfal85,Southern Nambiquara,Southern Nambiquara,Nambikwara Complex,Nambiquaran,"Nambiquaran, Nambikwara Complex",ISO 639-3: nab,sout2994,Brazil,,22144,,,22144,,,,NAMBICUARA,Si4,,Western Mato Grosso,188,32854,wiki,,,,@Murdock1967EA @Murdock1968WorldSamplingProvinces @Lomax1989Cantometrics @ArensbergLomax1977Subsistence @Koppen2006UpdatedWorldMap @Glottosout2994 @Ethnonab @WikiNambikwara  
-14.96,-65.63,-13.85,-65.52,South America,C South America,S Amazon Basin,Llanos de Moxos,Mojeño-Ignacianos,Mojeños; Moxeños; Moxos; Mojos,Mojeno Arawakan,Arawakan Peoples,Amazon Indigenous Peoples,,,,,1,,Tropical Savannah,Aw,,,Ignaciano,Bolivian Arawakan,Southern Maipuran,Arawakan,"Arawakan, Southern Maipuran, Bolivia-Parana, Mojeno-Paunaca, Mojeno",ISO 639-3: ign,igna1246,Bolivia,,62531,,,62531,,,,,,,,,,wiki,,,,@Murdock1968WorldSamplingProvince @Koppen2006UpdatedWorldMap @WikiMojenos @Glottoigna1246 @Ethnoign @WikiLlanosDeMoxos
10.23,-71.81,12.06,-71.59,South America,N South America,Continental Caribbean,"Guajira Peninsula, Colombia & Venezuela",Wayuu,Wayu; Wayúu; Guajiro; Goajiro,Caribbean Arawakan,,Continental Caribbean Indigenous Peoples,Circum-Pacific Hunter/ Foragers,1940; 1942; 1947; 1959; 1961; 1960-61,10,10,1,,Tropical Savannah,Aw,UAH (Unclassified Animal Husbanders),scfal991,Wayuu,Guajiro-Paraujano,Caribbean Arawakan,Arawakan,"Arawakan, Northern Maipuran, Caribbean Arawakan",ISO 639-3: guc,wayu1243,Colombia; Venezuela,,15973,15973,15973,15973,,15973,,GOAJIRA,Sb6,15973,Northern Colombia and Venezuela,172,25918,wiki,"Formerly, Wayuu society was probably egalitarian, based on an economy of horticulture, gathering, hunting, and fishing, depending on the region. Today, it is a strongly hierarchical pastoral culture. The first livestock arrived from Europe around the beginning of the sixteenth century. Hungry, curious, and adventurous, some of the Wayuu obtained livestock by raid and theft until they had semi-wild herds of cattle and horses. Pastoralism progressively became widespread, probably facilitated by missionaries, who made many attempts at pacification; by pirates hostile to the Spanish and in quest of food; and by Black slaves who, by choice or by force, settled among the Wayuu. At the close of the 19th c., pastoralism was general, supplemented by smuggling, wage labor, and urban remittances.",,,@Murdock1967EA @Murdock1968WorldSamplingProvinces @Lomax1989Cantometrics @ArensbergLomax1977Subsistence @Koppen2006UpdatedWorldMap  @Ethnoguc @WikiWayuu  @Glottowayu1243
5,-54,5.09,-57.33,South America,N South America,N Amazon Basin/ Continental Caribbean,Guianas Reg,Ndyuka,Aukan; Okanisi; Bushinengue; Maroons,N Atlantic Coast African/ Creole,,West & Central African Peoples,Tropical Gardeners,,,,1,,Tropical Rainforest/ Monsoon,"Af, Am",,,Ndyuka,Anglic,Germanic,Indo-European,"Indo-European, Germanic, Anglo-Frisian, Anglic, Guinea Coast Creole English, Eastern Maroons",,suri1272,French Guiana; Suriname,,14642,,,14642,,,,DJUKA,Sc18,,Bush Negroes,179,,wiki,,,,@Murdock1967EA @Murdock1968WorldSamplingProvinces @Lomax1989Cantometrics @Koppen2006UpdatedWorldMap @Glottosuri1272  @WikiNdyuka  
2.78,-54.44,5.09,-57.33,South America,N South America,N Amazon Basin/ Continental Caribbean,Guianas Reg,Wayana,Ojana; Ajana; Aiana; Ouyana; Uajana; Oepoeroei; Roucouyen; Oreocoyana; Orkokoyana; Urucuiana; Urukuyana; Alucuyana; Alukuyana; Wajana; Oyana; Oayana; Roucouyenne; Uaiana; Upurui,Guianan Cariban,,Amazon Indigenous Peoples,Circum-Pacific Hunter/ Foragers,1953; 1958;,10,,1,,Tropical Rainforest,Af,I-Amazon,scfal319,Wayana,Wayanaic,Guianan,Cariban,"Cariban, Guianan, Wayanaic",ISO 639-3: way,waya1269,French Guiana,,23288,23288,,23288,,23288,,RUCUYEN,Sc14,23288,Guiana,178,63578,wiki,"The Wayana-Aparai (Oyana) of the tropical rain forests along the Maroni R. in French Guiana and Suriname, also in Brazil, living by hunting, fishing, gathering, and gardening: manioc, cassava, sweet potatoes, yams, sugar cane, bananas, watermelons, pumpkins, and cotton. Several times a year, men form groups and go off for a few weeks to hunt deer, rodents, monkeys, wild pigs, birds, alligator, and lizards. Oyana raise hunting dogs, ducks and chickens, eating the eggs but never the animals.",,,@Murdock1967EA @Murdock1968WorldSamplingProvinces @Lomax1989Cantometrics @ArensbergLomax1977Subsistence @Koppen2006UpdatedWorldMap  @Ethnoway @WikiWayana  @Glottowaya1269
4.71,-64.39,5.69,-65.52,South America,N South America,Orinoco Basin,Amazonas/ Bolivar,So’to,Makiritare; Maiongong; Maquiritare; Soto; Ye'kuana; Yekuana; Dekuana; Yecuana; Ye'kwana; Ye'Kuana; Yequana,Guianan Cariban,,Orinoco Indigenous Peoples,Circum-Pacific Hunter/ Foragers,1964,11,8,1,,Tropical Rainforest/ Monsoon,"Af, Am",HF-South America,scfal196,Maquiritari,Maquiritari-Wayumara,Guianan,Cariban,"Cariban, Guianan, Maquiritari-Wayumara",ISO 639-3: mch,maqu1238,Venezuela,,29030,29030,29030,29030,,29030,,YEKUANA; MAKIRITARE,Sc16,29030; 20505,Southeast Venezuela,177,26225,wiki,"The So’to of the tropical rain forest live along rivers in Brazil and Venezuela, practicing shifting cultivation, fishing, and hunting. They weave intricate baskets and men must prove their weaving skills before marriage. Villagers lived in one big woven circular house given to them by Wanadi, their god. Hunting tapir, deer, peccaries, anteaters, male alligators, armadillos, and turtles by tracking and communal drive is preeminent over fishing. Men fish with harpoon arrows or join their women in fishing with hook and line (barbasco). Earthworms, leafcutter ants, palm-borer larvae, turtle eggs, frogs, and wild fruits and vegetables constitute much-appreciated seasonal fare.",,,@Murdock1967EA @Murdock1968WorldSamplingProvinces @Lomax1989Cantometrics @ArensbergLomax1977Subsistence @Koppen2006UpdatedWorldMap @Glottomaqu1238 @Ethnomch @WikiYe'kuana  
8,-69,7.82,-68.91,South America,N South America,Orinoco Basin,Los Llanos,Cuiva,Jivi,Guahiboan,,Orinoco Indigenous Peoples,Circum-Pacific Hunter/ Foragers,,,,1,,"Monsoon, Tropical Savannah","Am, Aw",,,Cuiba,Cuiba,Guahibo-Cuiva,Guahiboan,"Guahiboan, Guahibo-Cuiva",ISO 639-3: cui,cuib1242,Colombia,,14213,,,14213,,14213,,,,,Orinoco Plain,175,,wiki,,,,@Murdock1967EA @Murdock1968WorldSamplingProvinces @Lomax1989Cantometrics @Koppen2006UpdatedWorldMap  @Ethnocui @WikiIndigenousVenezuela  @Glottocuib1242
-17.14,-70.34,-14.72,-70.63,South America,N W South America,C Andes,Altiplano,Aymara,Aimara,Aymaran,,Andes Indigenous Peoples,Nuclear America,1964; 1977-78,12,,1,,"Temperate, Dry Winter, Warm Summer",Cwb,AH-Andes,scfal419,Southern Aymara,Southern Aymara,Central-Southern Aymara,Aymaran,"Ayamaran, Central-Southern Aymara",ISO 639-3: ayc,sout2996,Peru,,11133,11133,,11133,,11133,,AYMARA,Sf2,11133,Highland Bolivia,186,32043,wiki,"Aymara live in the Bolivian Andes on Lake Titicaca plateau (3-3.7k m asl) near Peru. Today they are herders and subsistence farmers in a cold, harsh climate. Using the terraced fields and careful rotations of their pre-Columbian ancestors they crop potatoes, (grown in the Andes for 7-10,000 years), corn, quinoa, barley. Men plow and dig, but the sacred task of planting is reserved for women, who have the power to give life.",,,@Murdock1967EA @Murdock1968WorldSamplingProvinces @Lomax1989Cantometrics @ArensbergLomax1977Subsistence @Koppen2006UpdatedWorldMap @Glottosout2996 @Ethnoayc @WikiAymara  
-2.83,-77.26,-9.29,-73.96,South America,N W South America,W Amazon Basin,Peruvian Amazon,Jivaro,Shuar; Achuar; Humabisa; Aguaruna,Jivaroan,Jivaroan Peoples,Amazon Indigenous Peoples,Circum-Pacific Hunter/ Foragers,1954; 1955; 1956-57,12,6,1,9,Tropical Rainforest,Af,I-Amazon,scfal310,Achuar-Shiwiar,Achuar-Shiwiar,Shuaric,Chicham,Jivaroan,ISO 639-3: acu,achu1248,Peru,,17667,17667,17667,17667,17667,17667,,JIVARO,Se3,17667,Loreto,183,837,wiki,"The Jivaro live in autonomous fortified households scattered in the forested eastern Andean slopes and lowlands of Ecuador and Peru. Men compete for wives, who do nearly all the arduous gardening work; they often maintain two wives, children and sons-in-law",,,@Murdock1967EA @Murdock1968WorldSamplingProvinces @Lomax1989Cantometrics @ArensbergLomax1977Subsistence @Koppen2006UpdatedWorldMap  @Ethnoacu @WikiJivaroan  @Glottoachu1248
31.92,68.82,33.28,70.08,South Asia,Afghanistan/ Pakistan/ India,Hindu Kush/ Karakoram,Pashtunistan,Pashtun,Pathan,Pashtun /Iranian (Ethnic Peoples),Himalayas/ Khyber Peoples,Indo-Aryan Northwestern,Old Eurasia,1951; 1956; 1960; 1961; 1964; 1950s,11,,1,,Semi Arid Steppe Hot ,BSh,PA-Middle East,scfal1179; scfal1180,Pashto,Pashto,Indo-Iranian,Indo-European,"Indo-European, Indo-Iranian, Iranian",,pash1269,Pakistsn,,23497,23497,,23497,,23497,,PATHAN; PASHTU,Ea2,23497,Afghanistan,71,51547,wiki,"The Pathan are a Pashtun people living in Northern Pakistan and Afghanistan. Some live as nomads, herding goats and camels; others farm wheat, barley, and corn. Many also work as traders, moneylenders, or seasonal laborers. They cling to their cultural traditions and tribal customs, especially values of hospitality, protection of guests and refugees, and defense of family and clan honor.",,,@Murdock1967EA @Murdock1968WorldSamplingProvinces @Lomax1989Cantometrics @ArensbergLomax1977Subsistence @Koppen2006UpdatedWorldMap   @WikiPashtuns  @Glottopash1269
18.98,72.83,19.61,75.85,South Asia,India,C India/ Central Tribes Area,Maharashtra,Marathi,Maharashtrian,Marathic  (Ethnic Peoples),Central Indian Peoples,Indo-Aryan Southern,,,,,1,,Tropical Savannah,Aw,,,Marathi,Indo-Aryan Southern zone,Indo-Iranian,Indo-European,"Indo-European, Indo-Iranian, Indo-Aryan, Marathic",ISO 639-3: mar,mara1378,India,,62537,,,62537,,,,,,,,,,wiki,,,,@Koppen2006UpdatedWorldMap @WikiMarathiPeople @Glottomara1378 @Ethnomar
10.52,78.83,10.02,79.86,South Asia,India,Dravidian Deccan,N E Sri Lanka/ Tamil Nadu,Tamil,,Sri Lankans,Tamil/ S Dravidian Peoples,Dravidian Peoples,Old Eurasia,1952,3,,1,,Tropical Savannah,Aw,PA-Middle East,scfal1193,Tamil,Tamil-Kannada,South Dravidian,Dravidian,"Dravidian, South Dravidian, Tamil-Kannada, Tamil-Malayalam, Tamiloid",ISO 639-3: tam,tami1289,India,,30099,30099,,30099,,,,TAMIL,Eg2,26500,Southeast India,67,33895,wiki,,,,@Murdock1967EA @Murdock1968WorldSamplingProvinces @Lomax1989Cantometrics @ArensbergLomax1977Subsistence @Koppen2006UpdatedWorldMap  @Ethnotam @WikiTamils  @Glottotami1289
27.02,74.21,26.26,74.03,South Asia,India,N W India,Rajasthan,Rajasthan,,Gujarati-Rajasthani,Indus Valley Peoples,Indo-Aryan Northwestern,Old Eurasia,1953; 1954; 1976; 1948-1950,8,,1,,Semi Arid Steppe Hot ,BSh,,,Rajasthani,Indo-Aryan Central zone,Indo-Iranian,Indo-European,"Indo-European, Indo-Iranian, Indo-Aryan, Gujarati-Rajasthani",,raja1256,India,,24157,24157,,24157,,24157,,RAJASTHAN,,24157,,,,wiki,"India’s largest state geographically, Rajasthan contains most of the Thar Desert and has rich and varied folk culture from villages as well as distinctive cultivated classical music and dance styles. Living in and near the desert has shaped Rajasthani cuisine, art, and music, and given rise to the wintertime desert festival, celebrated with song, dance, puppetry, acrobatics, folk performances, and camels.",,,@Murdock1967EA @Murdock1968WorldSamplingProvinces @Lomax1989Cantometrics @Koppen2006UpdatedWorldMap   @WikiRajasthani @WikiNagori  @Glottoraja1256
10.85,76.27,9.8,76.58,South Asia,India,Western Ghats,Kerala,Kerala,Keralam,Malayali,Western Ghats Peoples,Dravidian Peoples,Old Eurasia,1957; 1961; 1968,13,10,1,,Monsoon ,Am,PA-Middle East,scfal1161,Malayalam,Tamil-Kannada,South Dravidian,Dravidian,"Dravidian, South Dravidian, Tamil-Kannada, Tamil-Malayalam, Malayamoid",ISO 639-3: mal,mala1464,India,,18371,18371,18371,18371,,18371,,KERALA,Eg6,18371,Southwest India,65,49991,wiki,,,,@Murdock1967EA @Murdock1968WorldSamplingProvinces @Lomax1989Cantometrics @ArensbergLomax1977Subsistence @Koppen2006UpdatedWorldMap   @WikiKeralaEthnicGroups @WikiKerala  @Glottomala1464
17.85,73.11,14.32,74.44,South Asia,India,Western Ghats,Konkan Coast,Konkani,,Bhili (Ethnic Peoples),Western Ghats Peoples,Indo-Aryan Western,Old Eurasia,,,,1,,Monsoon,Am,,,Maharashtrian Konkani,Indo-Aryan Southern zone,Indo-Iranian,Indo-European,"Indo-European, Indo-Iranian, Indo-Aryan, Konkanic",ISO 639-3: knn,konk1267,India,,30127,,,30127,,,,,,,,,,wiki,,,,@Murdock1967EA @Murdock1968WorldSamplingProvinces @Lomax1989Cantometrics @Koppen2006UpdatedWorldMap @Glottokonk1267  @WikiKonkani  
12.88,75.18,13,75.4,South Asia,India,Western Ghats,Tulu Nadu,Tulu,Tuluva,Tulu (Ethnic Peoples),Western Ghats Peoples,Indo-Aryan Western,,,,,1,,Monsoon,Am,,,Tulu,Tulu-Koraga,South Dravidian,Dravidian,"Dravidian, South Dravidian, South Dravidian I, Tulu-Koraga, Tulu-Bellari",ISO 639-3: tcy,tulu1258,India,,62538,,,62538,,,,,,,,,,wiki,,,,@Murdock1968WorldSamplingProvinces @Koppen2006UpdatedWorldMap @WikiTuluPeople @WikiTuluNadu @Glottotulu1258 @Ethnotcy
24.01,90.12,22.9,87.75,South Asia,India/ Bangladesh,Bay of Bengal,Bengal,Bengal,Bangla; Bongo,Bengalis,West Bengal Peoples,Indo-Aryan Eastern,Old Eurasia,1951; 1952; 1953;,8,,2,,Tropical Savannah,Aw,PA-Middle East,scfal1136,Bengali,Indo-Aryan Eastern Zone,Indo-Iranian,Indo-European,"Indo-European, Indo-Iranian, Indo-Aryan, Indo-Aryan Eastern Zone, Oriya-Gauda-Kamrupa, Gauda-Banga",ISO 639-3: ben,beng1280,India,,12046,12046,,12046,,12046,,BENGALI,Ef2,12046,Ganges Valley,69,3631,wiki,,,,@Murdock1967EA @Murdock1968WorldSamplingProvinces @Lomax1989Cantometrics @ArensbergLomax1977Subsistence @Koppen2006UpdatedWorldMap @Glottobeng1280 @Ethnoben @WikiBengalis @WikiDhamraiUpazila  
26,92,25.96,89.97,South Asia,India/ Bangladesh,N E India/ N E Tribes Area,Assam/ Meghalaya/ N Bangladesh,Khasi,Ki Khun U Hynñiewtrep; Sylhet Khasi,Garo-Khasi (Ethnic Peoples),Garo Hills Peoples,Austroasiatic Peoples,Warm Latitude Gardeners,,,,1,,"Temperate, Dry Winter, Hot Summer",Cwa,AH-Upland South Asia,scfal557,Khasi,Khasian,Khasi-Palaung,Austroasiatic,"Austroasiatic, Khasian",ISO 639-3: kha,khas1269,Bangladesh; India,,30102,,,30102,,,,KHASI,Ei8,,Garo-Khasi,86,1352,wiki,,,,@Murdock1967EA @Murdock1968WorldSamplingProvinces @Lomax1989Cantometrics @ArensbergLomax1977Subsistence @Koppen2006UpdatedWorldMap @Glottokhas1269  @WikiKhasi  
22,93,23.23,92.83,South Asia,India/ Bangladesh,N E India/ N E Tribes Area,Mizoram,Mara,"Lakher; Zochhia; Shendu; Shendoo; Magha, Miram, Baungshel; Maring; Zyu; Zao; Zho; Khuangsai",Mara (Ethnic Peoples),Himalayan Peoples,Sino-Tibetan Peoples,Old Eurasia,,,,1,,"Temperate, Dry Winter, Hot Summer",Cwa,AH-Upland South Asia,scfal558,Mara Chin,Kuki-Chin,Kuki-Chin-Naga,Sino-Tibetan,"Sino-Tibetan, Kuki-Chin-Naga, Maraic",ISO 639-3: mrh,mara1382,India,,19603,,,19603,,,,LAKHER,Ei4,,Kuki-Chin,88,37708,wiki,,,,@Murdock1967EA @Murdock1968WorldSamplingProvinces @Lomax1989Cantometrics @ArensbergLomax1977Subsistence @Koppen2006UpdatedWorldMap @Glottomara1382  @WikiMara  
27.67,85.63,28.16,83.96,South Asia,India/ Nepal/ Tibet,Himalayan Mtns & Foothills,Nepal,Sherpa,,Nepalese (Ethnic Peoples),Himalayan Peoples,Sino-Tibetan Peoples,Old Eurasia,1958; 1959,3,,1,,"Temperate, Dry Winter, Warm Summer",Cwb,PA-Middle East,scfal1187,Solu-Khumbu Sherpa,Early Old Tibetan,Bodic,Sino-Tibetan,"Sino-Tibetan, Bodic, Bodish, Early Old Tibetan, Sherpaic",ISO 639-3: xsr,sher1255,Nepal,,25378,25378,,25378,,25378,,SHERPA,Ee6,25378,Tibet,85,8803,wiki,,,,@Murdock1967EA @Murdock1968WorldSamplingProvinces @Lomax1989Cantometrics @ArensbergLomax1977Subsistence @Koppen2006UpdatedWorldMap   @WikiSherpa @WikiPanchkhal  @Glottosher1255
-6.27,106.79,-7.35,109.71,Southeast Asia,Island S E Asia,Greater Sundas,Java,South Jakarta,Wòng Jåwå; Tiyang Jawi; Suku Jawa,Javanese,,Indonesian Peoples,Old Eurasia,1952; 1963; 1955-60;,16,,1,,Monsoon,Am,PA-East Asian Irrigation,scfal1070,Javanese,Javanesic,Malayo-Polynesian,Austronesian,"Austronesian, Malayo-Polynesian, Javanesic",ISO 639-3: jav,java1254,Indonesia,,17557,17557,,17557,,17557,,JAVANESE,Ib2,17557,Java,103,38212,wiki,,,,@Murdock1967EA @Murdock1968WorldSamplingProvinces @Lomax1989Cantometrics @ArensbergLomax1977Subsistence @Koppen2006UpdatedWorldMap   @WikiJavanese  @Glottojava1254
-2.97,119.83,-1.92,120.43,Southeast Asia,Island S E Asia,Greater Sundas,Sulawesi,Toraja,Toradja,Torajans,,Indonesian Peoples,Warm Latitude Foragers,1996-1997,1,,1,,Tropical Rainforest,Af,AH-Island Malay,scfal542,Toraja-Sa'dan,South Sulawesi,Malayo-Polynesian,Austronesian,"Austronesian, Malayo-Polynesian, South Sulawesi, Torajic",ISO 639-3: sda,tora1261,Indonesia,,27393,27393,,27393,,27393,,TORADJA,Ic5,27391; 30116,Celebes,105,65386,wiki,,,,@Murdock1967EA @Murdock1968WorldSamplingProvinces @Lomax1989Cantometrics @ArensbergLomax1977Subsistence @Koppen2006UpdatedWorldMap    @WikiToraja @Glottotora1261
-8.55,119.45,-8.55,119.45,Southeast Asia,Island S E Asia,Lesser Sundas,Komodo Island,Komodo,,Komodo People,,Komodo Island Peoples,,,,,1,,Tropical Savannah,Aw,,,Komodo,Bima-Lembata,Malayo-Polynesian,Austronesian,"Austronesian, Malayo-Polynesian, Flores-Sumba-Hawu, Manggaraiic",ISO 639-3: kvh,komo1261,Indonesia,,62536,,,62536,,,,,,,,,,wiki,,,,@Koppen2006UpdatedWorldMap @WikiKomodoIsland @Glottokomo1261 @Ethnokvh
-4,128,-2.26,127.84,Southeast Asia,Island S E Asia,Lesser Sundas,Maluku Islands,Ambonese,South Moluccans,Ambonese Peoples,,Moluccans,Warm Latitude Gardeners,,,,1,,Tropical Rainforest,Af,Uah (Unclassified Animal Husbanders),scfal983,Ambonese Malay,Malayic,Malayo-Polynesian,Austronesian,"Austronesian, Malayo-Polynesian, Malayo-Sumbawan, Malayic, Ambonic Malay",ISO 639-3: abs,ambo1250,Indonesia,,10462,,,10462,,10462,,AMBONESE,Ic11,,Moluccas,106,56872,wiki,,,,@Murdock1967EA @Murdock1968WorldSamplingProvinces @Lomax1989Cantometrics @ArensbergLomax1977Subsistence @Koppen2006UpdatedWorldMap    @WikiAmbonese @Glottoambo1250
-10.5,122,-10.51,121.9,Southeast Asia,Island S E Asia,Lesser Sundas,Savu Islands,Savu,Sabu; Sawu; Hawu,Savu Islanders,,Savu Islands Peoples,Warm Latitude Foragers,,,,1,,Tropical Savannah,Aw,,,Hawu,Bima-Lembata,Malayo-Polynesian,Austronesian,"Austronesian, Malayo-Polynesian, Flores-Sumba-Hawu, Hawu-Dhao",ISO 639-3: hvn,sabu1255,Indonesia,,25048,,,25048,,,,,,,,,,wiki,,,,@Murdock1967EA @Murdock1968WorldSamplingProvinces @Lomax1989Cantometrics @Koppen2006UpdatedWorldMap @Glottosabu1255   @WikiSavu 
17,121,16.6,121.19,Southeast Asia,Island S E Asia,N Philippines,Luzon,Bontoc,,Igorot Peoples,,Philippines Indigenous Peoples,Warm Latitude Foragers,,,,1,,Tropical Rainforest,Af,AH-Island Malay,scfal532,Bontok,Northern Luzon,Malayo-Polynesian,Austronesian,"Austronesian, Malayo-Polynesian, Meso-Cordilleran, Nuclear Cordilleran, Bontok-Kankanay",ISO 639-3: bnc,bont1247,Philippines,,30140,,,30140,,,,BONTOK,Ia8,,Philippines,99,56368,wiki,,,,@Murdock1967EA @Murdock1968WorldSamplingProvinces @Lomax1989Cantometrics @ArensbergLomax1977Subsistence @Koppen2006UpdatedWorldMap    @WikiIgorot @Glottobont1247
16.22,121.88,16.6,121.19,Southeast Asia,Island S E Asia,N Philippines,Luzon,Casiguran,Alta; Arta; Baluga; Dumagat; Negritos; Pugut,Ayta Peoples,"""Negrito"" Hunter-Gatherers",Philippines Indigenous Peoples,Warm Latitude Foragers,1968,10,,1,,Tropical Rainforest,Af,,,Kasiguranin,Central Philippine,Malayo-Polynesian,Austronesian,"Austronesian, Malayo-Polynesian, Central Philippine, Tagalogic",ISO 639-3: ksn,kasi1256,Philippines,,13256,13256,,13256,,,,CASIGURAN,,13256,,,,wiki,,,,@Murdock1967EA @Murdock1968WorldSamplingProvinces @Lomax1989Cantometrics @Koppen2006UpdatedWorldMap    @WikiCasiguran @Glottokasi1256
15.94,120.99,16.6,121.19,Southeast Asia,Island S E Asia,N Philippines,Luzon,Ilocano,Ilokano; Iloko; Samtoy; Iloco; Ilokan,Ilocano,,Philippines Indigenous Peoples,Warm Latitude Foragers,1956,1,,1,,"Monsoon, Tropical Savannah, Warm Oceanic Humid Subtropical","Am, Aw, Cfa",,,Iloko,Northern Luzon,Malayo-Polynesian,Austronesian,"Austronesian, Mayalo-Polynesian, Philippine, Northern Luzon",ISO 639-3: ilo,ilok1237,Philippines,,17150,17150,,17150,,,,ILOCANO,,17150,,,,wiki,"The Ilocano live mostly along the coastal areas of the northern Philippines. Most are farmers, growing rice, corn, and root crops, and raising pigs, goats, and chickens on small plots of land in a harsh environment. This geographic disadvantage has made them a resourceful, hardworking, and frugal people. The Ilocano have a rich culture and take pride in their customs, songs, and dances. Family structure is patriarchal and family ties are strong. Most Ilocanos are Roman Catholics who hold on to indigenous belief in the power of dead souls to harm the living if not properly respected.",,,@Murdock1967EA @Murdock1968WorldSamplingProvinces @Lomax1989Cantometrics @Koppen2006UpdatedWorldMap    @WikiIlocano @Glottoilok1237
14,121,16.6,121.19,Southeast Asia,Island S E Asia,N Philippines,Luzon,Tagalog,,Tagalog,,Philippines Indigenous Peoples,Warm Latitude Foragers,,,,1,,Monsoon,Am,,,Tagalog,Central Philippine,Malayo-Polynesian,Austronesian,"Austronesian, Malayo-Polynesian, Central Philippine, Tagalogic, Tagalog-Filipino",ISO 639-3: tgl,taga1270,Philippines,,26368,,,26368,,,,,,,,,,wiki,,,,@Murdock1967EA @Murdock1968WorldSamplingProvinces @Lomax1989Cantometrics @Koppen2006UpdatedWorldMap @Glottotaga1269   @WikiTagalog 
8.63,125.74,7.72,124.98,Southeast Asia,Island S E Asia,S Philippines,Mindanao,Manobo,Lumad,Manobo Peoples,,Philippines Indigenous Peoples,Warm Latitude Foragers,1966-70,2,,1,,Tropical Rainforest,Af,AH-Proto Malay,scfal525,Manobo,Manobo,Malayo-Polynesian,Austronesian,"Austronesian, Mayalo-Polynesian, Philippine",,mano1276,Philippines,,20791,20791,,20791,,20791,,MANOBO,Ia15,20791,Philippines,99,14161,wiki,,,,@Murdock1967EA @Murdock1968WorldSamplingProvinces @Lomax1989Cantometrics @ArensbergLomax1977Subsistence @Koppen2006UpdatedWorldMap    @WikiLumad @Glottomano1276
12.05,105.02,12.74,104.89,Southeast Asia,Mainland S E Asia,Indochinese Peninsula,Cambodia,Khmer,,Khmer,,Austroasiatic Peoples,Old Eurasia,1980,1,,1,,Tropical Savannah,Aw,PA-East Asian Intensive; PA-East Asian Irrigation,scfal1055; scfal1066,Khmeric,Khmeric,Khmeric,Austroasiatic,Austroasiatic,,khme1253,Cambodia,,13124,13124,,13124,,,,CAMBODIANS; KHMER,Ej5,13124; 18470,Cambodia,95,17459; 9800,wiki,The Khmer people are a Southeast Asian indigenous group native to Cambodia.,,,@Murdock1967EA @Murdock1968WorldSamplingProvinces @Lomax1989Cantometrics @ArensbergLomax1977Subsistence @Koppen2006UpdatedWorldMap @Glottokhme1253  @WikiKhmer  
-2.75,103.83,3.87,102.15,Southeast Asia,Mainland S E Asia,Indochinese Peninsula,Malay Peninsula,Malay,Melayu,Malay Peoples,,Malay Peoples,Malaysians; Warm Latitude Foragers,1959; 1962,11,,1,,Tropical Rainforest,Af,PA-East Asian Irrigation,scfal1074,Standard Malay,Malayic,Malayo-Polynesian,Austronesian,"Austronesian, Malayo-Polynesian, Malayo-Sumbawan, Malayic, Indonesian Archipelago Malay",ISO 639-3: zsm,stan1306,Malaysia,,20571,20571,,20571,,20571,,MALAYA MOSLEM (SAFR.); MALAYSIA,Ej8,20571; 20582,Malaya and Sumatra,102,23376,wiki,,,,@Murdock1967EA @Murdock1968WorldSamplingProvinces @Lomax1989Cantometrics @ArensbergLomax1977Subsistence @Koppen2006UpdatedWorldMap    @WikiMalays @Glottostan1306
20.79,93.97,21.49,95.76,Southeast Asia,Mainland S E Asia,Indochinese Peninsula,Myanmar,Burmese,Myanmar; Birmania; Birmanie; Myanmarese,Bamar,,Burmese Peoples,Old Eurasia,1951; 1973-4,11,7,2,,Tropical Savannah,Aw,PA-East Asian Irrigation,scfal1065,Burmese,Burmish,Burmo-Qiangic,Sino-Tibetan,"Sino-Tibetan, Burmo-Qiangic, Lolo-Burmese, Old-Modern Burmese",ISO 639-3: mya,nucl1310,Myanmar,,12849,12849,12849,12849,,12849,,BURMESE,Ei3,12849,South Burma,89,12594,wiki,The Bamar people (also commonly known as the Burmese and Burmans) are a Sino-Tibetan indigenous group and nation native to Myanmar. They are the dominant and largest group of the country. ,,,@Murdock1967EA @Murdock1968WorldSamplingProvinces @Lomax1989Cantometrics @ArensbergLomax1977Subsistence @Koppen2006UpdatedWorldMap @Glottonucl1310 @Ethnomya @WikiBamar  
17.75,104.68,15.95,100.84,Southeast Asia,Mainland S E Asia,Indochinese Peninsula,Thailand,Thai,Siamese,Thai,Tai Peoples,Tai Peoples,Old Eurasia,1955; 1962; 1953-1957; Pre-1954;,20,10,2,,Tropical Savannah,Aw,PA-East Asian Irrigation,scfal1082,Thai,Daic,Kam-Tai,Tai-Kadai,"Tai-Kadai, Kam-Tai, Daic, Southwestern Tai, Lao-Thai",ISO 639-3: tha,thai1261,Thailand,,26973,26973,26973,26973,,26973,,THAILAND; TAI,Ej9,26973; 26423,Thai; Southwest China,91,23913,wiki,"The Thai people of northern Thailand, Southeast Asia, northeast India and southern China are a subgroup of the Tai, who probably originated in Guangxi, China. Thai traditions are influenced by many cultures, including Indian, Lao, Burmese, Cambodian, and Chinese. Thailand’s religions include Buddhism, Hinduism, and animism. Respect for ancestors is an integral part of Thai spiritual practice and elders have important roles in families and ceremonies.",,,@Murdock1967EA @Murdock1968WorldSamplingProvinces @Lomax1989Cantometrics @ArensbergLomax1977Subsistence @Koppen2006UpdatedWorldMap    @WikiThai @Glottothai1261
38.96,35.24,38.58,35.76,Western Asia,Anatolia,C Anatolia Reg,Kayseri Prov,Turkey,Turk; Turkish; Türkler,Turkish Turkic Peoples,Anatolian Peoples,Anatolia Turkic Peoples,Old Eurasia,1953; 1970s; 1980s;,9,6,1,,"Temperate, Dry Summer, Warm Summer",Csb,PA-Middle East,scfal1201,Turkish,Oghuz,Common Turkic,Turkic,"Turkic, Oghuz, West Oghuz",ISO 639-3: tur,nucl1301,Turkey,,27765,27765,27765,27765,,27765,,TURKS,Ci5,27765,Turkey,54,30060,wiki,,,,@Murdock1967EA @Murdock1968WorldSamplingProvinces @Lomax1989Cantometrics @ArensbergLomax1977Subsistence @Koppen2006UpdatedWorldMap @Glottonucl1301 @Ethnotur @WikiKayseri  
14,20,13.74,13.63,Western Asia,Berber & Semitic North Africa,C Sahel - Berber & Semitic,Chad Basin,Shuwa,"Diffa, Baggara",Baggara/ Shua Arabs,N African Arabs,Arabic Speaking Peoples,Old Eurasia,,,,1,,Semi Arid Steppe Hot,BSh,P-Moslem Sudan,scfal1019,Chadian Arabic,Arabic,Semitic,Afro-Asiatic,"Afro-Asiatic, Semitic, West Semitic, Arabian, Egyptic Arabic, Sudanese-Chadian Arabic",ISO 639-3: shu,chad1249,Nigeria; Chad,,10772,,,10772,,10772,,SHUWA,Cb16,,Arabs of North Africa,49,39779,wiki,,,,@Murdock1967EA @Murdock1968WorldSamplingProvinces @Lomax1989Cantometrics @ArensbergLomax1977Subsistence @Koppen2006UpdatedWorldMap   @WikiChadianArabic  @Glottochad1249
24,30,26.79,28.96,Western Asia,Berber & Semitic North Africa,E Sahara - Berber & Semitic,Egypt,Fellahin,Ṣa‘īdi; Egyptian,Egyptians,Egypians,North African Arabic Speaking Peoples,Old Eurasia,,,,1,,Desert Hot,BWh,,,Egyptian Arabic,Arabic,Semitic,Afro-Asiatic,"Afro-Asiatic, Semitic, Arabic, Egypto-Sudanic Arabic",ISO 639-3: arz,egyp1253,Egypt,,15291,,,15291,,,,,,,,,,wiki,,,,@Murdock1967EA @Murdock1968WorldSamplingProvinces @Lomax1989Cantometrics @Koppen2006UpdatedWorldMap @Glottoegyp1253   @WikiFella 
41.82,45.65,41.95,43.68,Western Asia,Caucasus,C Caucasus,Republic of Georgia,Kakheti,Georgian; Sakartvelo,Georgians,Caucasian Peoples,Caucasus Peoples,Old Europe,1961; 1963; 1964,7,8,2,,Warm Oceanic Humid Subtropical,Cfa,Unclassified Complex Cultivators,scfal1206,Kaxetian,Georgian,Georgian-Zan,Kartvelian,"Kartvelian, Georgic, Georgian",,kaxe1238,Georgia,,15797,15797,15797,15797,,15797,,GEORGIAN,Ci8,15797,,,46397,wiki,"The Georgian people, also known as Kartvelians, are a nation and native Caucasian ethnic group indigenous to Georgia.The origins of polyphonic singing in Georgia are little known. The Georgian State Folk Song & Dance Ensemble state that ""Many traditional Georgian choral songs actually date back to a cult of the grapevine"" (see also Hugo Zemp's film, Table Songs of Kakheti). Work songs, friendship songs, harvest songs, table songs, suneral songs, all of these genres are performed polyphonically in Georgia, or as solo songs with drone accompaniment in different regional styles that identify or identified each place with an imprint as almost as deep as DNA. To summarize such regional distinctions (urther complicated by local variations), complex polyphony arises in the Svaneti region in northwestern Georgia; three-part polyphony with yodel and hocketing in the Guria Region, remarkably like African hunter-gather style; two-part polyphony over a bass drone in Kakheti. All of these, as the State Ensemble notes point out, frequetnly take unconventional harmonic turns.",,,@Murdock1967EA @Murdock1968WorldSamplingProvinces @Lomax1989Cantometrics @ArensbergLomax1977Subsistence @Koppen2006UpdatedWorldMap @Glottokaxe1238  @WikiKakhetians  
34.77,32.42,35.15,33.3,Western Asia,Middle East,Levant,Cyprus,Greek Cypriots,Cypriot Greeks,Cypriot Greeks,,Middle East Greek Peoples,Old Eurasia,,,,3,,"Temperate, Dry Summer, Hot Summer",Csa,,,Cypriot Greek,Greek,Graeco-Phrygian,Indo-European,"Indo European, Graeco-Phrygian, Greek, East Greek, Koineic Greek",,cypr1249,Cyprus,,62465,,,62465,,,,,,,,,,wiki,,,,@Murdock1967EA @Murdock1968WorldSamplingProvinces @Lomax1989Cantometrics @Koppen2006UpdatedWorldMap @Glottocypr1249  @WikiGreekCypriots  
31.05,34.85,31.12,34.78,Western Asia,Middle East,Levant,Israel,Israeli Jews,Sabras,Israeli Jews,,Middle East Jews,Old Eurasia,1949,3,,1,,"Temperate, Dry Summer, Hot Summer",Csa,,,Modern Hebrew,Canaanite,Semitic,Afro-Asiatic,"Afro-Asiatic, Semitic, West Semitic, Canaanite, Hebrewic",ISO 639-3: heb,hebr1245,Israel,,17700,17700,,17700,,17700,,JEWS:SECULAR ISRAELI,,17700,,,,wiki,,,,@Murdock1967EA @Murdock1968WorldSamplingProvinces @Lomax1989Cantometrics @Koppen2006UpdatedWorldMap @Glottohebr1246  @WikiIsrael  
34.81,38.99,35.07,38.42,Western Asia,Middle East,Levant,Syria,Syria,Syrian; Sūriyyīn,Levant Arabs,,Middle East Arabic Speaking Peoples,Old Eurasia,1952,1,,1,,Semi Arid Steppe Cold,BSk,PA-Middle East,scfal1191,North Levantine Arabic,Arabic,Semitic,Afro-Asiatic,"Afro-Asiatic, Semitic, Arabian, Arabic, Levantine Arabic",ISO 639-3: apc,nort3139,Syria,,26346,26346,,26346,,26346,,SYRIANS,Cj1,26346,Arabs of Arabia and the Levant,52,60006,wiki,,,,@Murdock1967EA @Murdock1968WorldSamplingProvinces @Lomax1989Cantometrics @ArensbergLomax1977Subsistence @Koppen2006UpdatedWorldMap   @WikiSyrians  @Glottonort3139
